{
"type": "FeatureCollection",
"name": "viñedos_singulares-abalos",
"crs": { "type": "name", "properties": { "name": "urn:ogc:def:crs:EPSG::25830" } },
"xy_coordinate_resolution": 1e-07,
"features": [
{ "type": "Feature", "properties": { "paraje": "Puelles Zenus", "provincia": "La Rioja", "municipio": "Ábalos", "poligono": "13", "parcela": "225", "recinto": "1", "uso_sigpac": "VI", "superficie": 2067.6678, "orden": "<a href=\"https://www.boe.es/boe/dias/2019/07/30/pdfs/BOE-A-2019-11186.pdf\" target=\"_blank\">APA/816/2019</a>", "expediente": "VS-053/2019", "boe": "BOE_181_30072019", "area": 2069.2805, "promotor": "Jesús Puelles Hernández y uno" }, "geometry": { "type": "MultiPolygon", "coordinates": [ [ [ [ 523194.477842, 4712430.314654 ], [ 523180.967322, 4712440.0412184 ], [ 523174.0920165, 4712446.4475824 ], [ 523168.8888387, 4712451.1050748 ], [ 523181.145813, 4712470.2116988 ], [ 523199.9677441, 4712494.7146416 ], [ 523207.7754496, 4712504.0570541 ], [ 523218.7310161, 4712492.5009332 ], [ 523228.5783378, 4712483.4506575 ], [ 523226.2424344, 4712477.5021507 ], [ 523209.2449392, 4712454.8151982 ], [ 523207.5346507, 4712448.3246848 ], [ 523201.133696, 4712440.4860238 ], [ 523194.477842, 4712430.314654 ] ] ] ] } },
{ "type": "Feature", "properties": { "paraje": "Puelles Zenus", "provincia": "La Rioja", "municipio": "Ábalos", "poligono": "13", "parcela": "14", "recinto": "1", "uso_sigpac": "VI", "superficie": 2742.5842, "orden": "<a href=\"https://www.boe.es/boe/dias/2019/07/30/pdfs/BOE-A-2019-11186.pdf\" target=\"_blank\">APA/816/2019</a>", "expediente": "VS-053/2019", "boe": "BOE_181_30072019", "area": 2744.6288, "promotor": "Jesús Puelles Hernández y uno" }, "geometry": { "type": "MultiPolygon", "coordinates": [ [ [ [ 523383.7934094, 4712716.3136007 ], [ 523376.8624791, 4712724.6405928 ], [ 523335.3102256, 4712774.5583852 ], [ 523334.9475898, 4712775.0013329 ], [ 523354.1145467, 4712789.2345576 ], [ 523354.1554739, 4712789.2680074 ], [ 523373.6396996, 4712801.8811504 ], [ 523405.3256628, 4712744.7793043 ], [ 523390.1319305, 4712732.8134434 ], [ 523387.0179102, 4712728.8832113 ], [ 523386.0668498, 4712726.1261892 ], [ 523378.281699, 4712724.8674476 ], [ 523384.4050809, 4712717.4815911 ], [ 523383.7934094, 4712716.3136007 ] ] ] ] } },
{ "type": "Feature", "properties": { "paraje": "Puelles Zenus", "provincia": "La Rioja", "municipio": "Ábalos", "poligono": "13", "parcela": "135", "recinto": "1", "uso_sigpac": "VI", "superficie": 6880.7608, "orden": "<a href=\"https://www.boe.es/boe/dias/2019/07/30/pdfs/BOE-A-2019-11186.pdf\" target=\"_blank\">APA/816/2019</a>", "expediente": "VS-053/2019", "boe": "BOE_181_30072019", "area": 6886.3213, "promotor": "Jesús Puelles Hernández y uno" }, "geometry": { "type": "MultiPolygon", "coordinates": [ [ [ [ 523191.982402, 4712570.6068567 ], [ 523188.6362877, 4712582.0662505 ], [ 523200.824992, 4712594.4880076 ], [ 523204.1611288, 4712598.3189585 ], [ 523204.8851155, 4712615.033075 ], [ 523205.3614668, 4712634.6223327 ], [ 523186.2448925, 4712651.8254588 ], [ 523182.6665224, 4712671.4122981 ], [ 523182.1855388, 4712687.6560229 ], [ 523190.318499, 4712700.3196369 ], [ 523196.1186005, 4712708.5893488 ], [ 523214.3654134, 4712718.2997357 ], [ 523217.6100337, 4712720.0206055 ], [ 523219.4781353, 4712721.0151114 ], [ 523221.9607534, 4712722.3336899 ], [ 523226.0246761, 4712724.5014654 ], [ 523226.0495966, 4712724.4127157 ], [ 523230.918459, 4712706.7623256 ], [ 523238.321431, 4712682.4024157 ], [ 523240.7052537, 4712676.447471 ], [ 523241.6654319, 4712674.0410866 ], [ 523248.3524532, 4712655.1642305 ], [ 523251.9482893, 4712645.1381305 ], [ 523253.1368504, 4712635.8035401 ], [ 523252.4210064, 4712626.5069968 ], [ 523250.9805145, 4712617.9075899 ], [ 523246.9242572, 4712610.9761586 ], [ 523244.2951851, 4712601.895302 ], [ 523243.819809, 4712591.8666923 ], [ 523224.7119686, 4712581.8202323 ], [ 523212.7641658, 4712573.4633454 ], [ 523207.5165188, 4712571.7913129 ], [ 523195.3304841, 4712570.8623167 ], [ 523191.982402, 4712570.6068567 ] ] ] ] } },
{ "type": "Feature", "properties": { "paraje": "Laderas del Portillo", "provincia": "La Rioja", "municipio": "Ábalos", "poligono": "4", "parcela": "199", "recinto": "2", "uso_sigpac": "VI", "superficie": 7887.611, "orden": "<a href=\"https://www.boe.es/boe/dias/2019/07/30/pdfs/BOE-A-2019-11186.pdf\" target=\"_blank\">APA/816/2019</a>", "expediente": "VS-088/2019", "boe": "BOE_181_30072019", "area": 7893.6865, "promotor": "Bodegas Ostatu S.L." }, "geometry": { "type": "MultiPolygon", "coordinates": [ [ [ [ 525049.1317648, 4712903.6450669 ], [ 525030.7171194, 4712948.2174103 ], [ 525015.3040247, 4712995.8209327 ], [ 524991.5256444, 4713007.4280742 ], [ 524993.1924078, 4713025.5227245 ], [ 524993.5386151, 4713034.240726 ], [ 524995.541802, 4713040.9437304 ], [ 524997.8877411, 4713043.6282661 ], [ 525003.2461408, 4713043.9584535 ], [ 525010.2740422, 4713045.6382536 ], [ 525017.6466964, 4713047.3081974 ], [ 525036.6621849, 4713029.5211865 ], [ 525036.7774505, 4713029.4216643 ], [ 525036.8268958, 4713029.3663217 ], [ 525036.876301, 4713029.322083 ], [ 525037.0821696, 4713029.1340539 ], [ 525037.2221779, 4713029.0013084 ], [ 525037.4033439, 4713028.8353987 ], [ 525038.2516011, 4713028.0389552 ], [ 525038.6386758, 4713027.6739125 ], [ 525089.3360834, 4712980.2754251 ], [ 525106.0719955, 4712966.5333905 ], [ 525106.3202694, 4712965.9679755 ], [ 525106.4195229, 4712965.7573552 ], [ 525106.4526742, 4712965.6686417 ], [ 525106.502321, 4712965.5577795 ], [ 525106.6844126, 4712965.1364795 ], [ 525106.8085296, 4712964.859324 ], [ 525106.9492222, 4712964.5378119 ], [ 525107.0071168, 4712964.4158753 ], [ 525108.4223318, 4712961.1785753 ], [ 525110.4364542, 4712953.4684669 ], [ 525109.2996578, 4712950.0664911 ], [ 525109.2428059, 4712949.8997235 ], [ 525109.2266313, 4712949.8330402 ], [ 525109.1860342, 4712949.7107479 ], [ 525109.161652, 4712949.644035 ], [ 525107.7569697, 4712945.4193849 ], [ 525104.408716, 4712940.7324461 ], [ 525094.3574154, 4712933.0231887 ], [ 525082.6887005, 4712925.4413599 ], [ 525049.1317648, 4712903.6450669 ] ] ] ] } },
{ "type": "Feature", "properties": { "paraje": "Laderas del Portillo", "provincia": "La Rioja", "municipio": "Ábalos", "poligono": "4", "parcela": "200", "recinto": "1", "uso_sigpac": "VI", "superficie": 2593.9132, "orden": "<a href=\"https://www.boe.es/boe/dias/2019/07/30/pdfs/BOE-A-2019-11186.pdf\" target=\"_blank\">APA/816/2019</a>", "expediente": "VS-088/2019", "boe": "BOE_181_30072019", "area": 2596.2619, "promotor": "Bodegas Ostatu S.L." }, "geometry": { "type": "MultiPolygon", "coordinates": [ [ [ [ 525032.6799382, 4712895.4686742 ], [ 525021.019124, 4712903.8991584 ], [ 525020.1056718, 4712904.5621195 ], [ 525011.3716982, 4712932.1800164 ], [ 524998.4462566, 4712968.1997947 ], [ 524991.5256444, 4713007.4280742 ], [ 525015.3040247, 4712995.8209327 ], [ 525030.7171194, 4712948.2174103 ], [ 525049.1317648, 4712903.6450669 ], [ 525032.6799382, 4712895.4686742 ] ] ] ] } },
{ "type": "Feature", "properties": { "paraje": "La Artesilla de Leza García", "provincia": "La Rioja", "municipio": "Ábalos", "poligono": "13", "parcela": "207", "recinto": "1", "uso_sigpac": "VI", "superficie": 5826.3371, "orden": "<a href=\"https://www.boe.es/boe/dias/2020/08/08/pdfs/BOE-A-2020-9446.pdf\" target=\"_blank\">APA/780/2020</a>", "expediente": "VS-104/2019", "boe": "BOE_214_08082020", "area": 5830.6597, "promotor": "Bodegas Leza García S.L." }, "geometry": { "type": "MultiPolygon", "coordinates": [ [ [ [ 522916.4464771, 4711974.10201 ], [ 522915.5407664, 4711974.9318332 ], [ 522887.8670954, 4712000.3468216 ], [ 522886.755588, 4712001.3536368 ], [ 522885.0759962, 4712002.8693714 ], [ 522870.1818129, 4712016.3673782 ], [ 522868.0981746, 4712018.4369933 ], [ 522829.1762626, 4712057.1290545 ], [ 522840.6867469, 4712069.0815596 ], [ 522865.267969, 4712092.7696768 ], [ 522867.7824874, 4712089.4689219 ], [ 522870.7236756, 4712086.2250919 ], [ 522881.4010383, 4712074.4232411 ], [ 522905.5364612, 4712051.48389 ], [ 522923.6818189, 4712032.8554742 ], [ 522924.0770452, 4712032.4903416 ], [ 522944.4721355, 4712013.7361476 ], [ 522944.4558646, 4712013.6916775 ], [ 522940.4368312, 4712002.7408728 ], [ 522933.0274135, 4711989.3359854 ], [ 522932.1670311, 4711988.8667755 ], [ 522931.1756012, 4711988.3083007 ], [ 522924.7158694, 4711983.1346966 ], [ 522916.4464771, 4711974.10201 ] ] ] ] } },
{ "type": "Feature", "properties": { "paraje": "La Artesilla de Leza García", "provincia": "La Rioja", "municipio": "Ábalos", "poligono": "13", "parcela": "137", "recinto": "1", "uso_sigpac": "VI", "superficie": 4745.3729, "orden": "<a href=\"https://www.boe.es/boe/dias/2020/08/08/pdfs/BOE-A-2020-9446.pdf\" target=\"_blank\">APA/780/2020</a>", "expediente": "VS-104/2019", "boe": "BOE_214_08082020", "area": 4749.0063, "promotor": "Bodegas Leza García S.L." }, "geometry": { "type": "MultiPolygon", "coordinates": [ [ [ [ 523293.5016535, 4712643.9336311 ], [ 523265.3143537, 4712690.7541607 ], [ 523245.5057769, 4712728.3530819 ], [ 523247.4754118, 4712728.4373968 ], [ 523249.551675, 4712728.5442771 ], [ 523250.7990893, 4712728.6039695 ], [ 523251.3407361, 4712728.6279893 ], [ 523254.0489328, 4712728.7591927 ], [ 523254.1556355, 4712728.7595496 ], [ 523254.2048457, 4712728.7708184 ], [ 523262.5182168, 4712729.1650669 ], [ 523272.1196621, 4712732.18421 ], [ 523283.9171201, 4712738.7640403 ], [ 523293.5192955, 4712746.4580514 ], [ 523328.6125041, 4712693.8533461 ], [ 523338.1754959, 4712681.4377205 ], [ 523344.6248793, 4712674.7413795 ], [ 523336.2634796, 4712666.6295071 ], [ 523323.128804, 4712654.9261028 ], [ 523305.9224733, 4712667.8269114 ], [ 523297.3250292, 4712654.2066506 ], [ 523293.5016535, 4712643.9336311 ] ] ] ] } },
{ "type": "Feature", "properties": { "paraje": "La Artesilla de Leza García", "provincia": "La Rioja", "municipio": "Ábalos", "poligono": "13", "parcela": "7", "recinto": "1", "uso_sigpac": "VI", "superficie": 4134.0127, "orden": "<a href=\"https://www.boe.es/boe/dias/2020/08/08/pdfs/BOE-A-2020-9446.pdf\" target=\"_blank\">APA/780/2020</a>", "expediente": "VS-104/2019", "boe": "BOE_214_08082020", "area": 4137.6022, "promotor": "Bodegas Leza García S.L." }, "geometry": { "type": "MultiPolygon", "coordinates": [ [ [ [ 523544.0677418, 4712879.6854561 ], [ 523543.2620692, 4712880.071372 ], [ 523524.0082203, 4712889.2781398 ], [ 523518.1712447, 4712892.067735 ], [ 523517.9575063, 4712892.1669491 ], [ 523525.5478853, 4712907.2609342 ], [ 523525.8250677, 4712907.8170787 ], [ 523525.9636965, 4712908.0840469 ], [ 523526.1185903, 4712908.3954867 ], [ 523526.4691908, 4712909.0851292 ], [ 523541.8292059, 4712939.6290674 ], [ 523547.4509201, 4712951.918171 ], [ 523548.1679258, 4712953.4751779 ], [ 523550.7831642, 4712959.2137684 ], [ 523562.4094428, 4712984.6261036 ], [ 523570.6441427, 4713003.2867516 ], [ 523582.3189641, 4713002.2492467 ], [ 523596.4146558, 4712998.9103192 ], [ 523606.5241413, 4712997.1901897 ], [ 523601.7896564, 4712987.1248749 ], [ 523587.2938028, 4712958.4159128 ], [ 523575.1177309, 4712935.4001642 ], [ 523560.0627821, 4712906.9114494 ], [ 523544.0677418, 4712879.6854561 ] ] ] ] } },
{ "type": "Feature", "properties": { "paraje": "La Artesilla de Leza García", "provincia": "La Rioja", "municipio": "Ábalos", "poligono": "13", "parcela": "6", "recinto": "1", "uso_sigpac": "VI", "superficie": 3099.7297, "orden": "<a href=\"https://www.boe.es/boe/dias/2020/08/08/pdfs/BOE-A-2020-9446.pdf\" target=\"_blank\">APA/780/2020</a>", "expediente": "VS-104/2019", "boe": "BOE_214_08082020", "area": 3102.1612, "promotor": "Bodegas Leza García S.L." }, "geometry": { "type": "MultiPolygon", "coordinates": [ [ [ [ 523609.4804125, 4713003.9959579 ], [ 523594.4984289, 4713004.8778376 ], [ 523584.4671908, 4713007.7308714 ], [ 523572.8442584, 4713010.4119599 ], [ 523575.6226958, 4713023.679715 ], [ 523575.7034532, 4713024.0686335 ], [ 523575.7438507, 4713024.2575407 ], [ 523575.75187, 4713024.3130886 ], [ 523575.8407973, 4713024.7131389 ], [ 523577.5046613, 4713032.647132 ], [ 523579.2531786, 4713051.9187313 ], [ 523579.9733194, 4713059.8051077 ], [ 523581.3160898, 4713072.8681222 ], [ 523581.3558842, 4713073.2346935 ], [ 523581.4194723, 4713073.8456365 ], [ 523581.5068542, 4713074.7009511 ], [ 523581.8880437, 4713078.4665452 ], [ 523582.306889, 4713078.3902371 ], [ 523616.4811263, 4713071.766048 ], [ 523627.9478426, 4713069.1400224 ], [ 523635.2433089, 4713067.0439344 ], [ 523634.9990849, 4713066.454585 ], [ 523609.4804125, 4713003.9959579 ] ] ] ] } },
{ "type": "Feature", "properties": { "paraje": "La Artesilla de Leza García", "provincia": "La Rioja", "municipio": "Ábalos", "poligono": "13", "parcela": "6", "recinto": "2", "uso_sigpac": "CA", "superficie": 227.8538, "orden": "<a href=\"https://www.boe.es/boe/dias/2020/08/08/pdfs/BOE-A-2020-9446.pdf\" target=\"_blank\">APA/780/2020</a>", "expediente": "VS-104/2019", "boe": "BOE_214_08082020", "area": 227.8683, "promotor": "Bodegas Leza García S.L." }, "geometry": { "type": "MultiPolygon", "coordinates": [ [ [ [ 523606.5241413, 4712997.1901897 ], [ 523596.4146558, 4712998.9103192 ], [ 523582.3189641, 4713002.2492467 ], [ 523570.6441427, 4713003.2867516 ], [ 523572.8442584, 4713010.4119599 ], [ 523584.4671908, 4713007.7308714 ], [ 523594.4984289, 4713004.8778376 ], [ 523609.4804125, 4713003.9959579 ], [ 523606.5241413, 4712997.1901897 ] ] ] ] } }
]
}
