{
"type": "FeatureCollection",
"name": "viñedos_singulares-huercanos",
"crs": { "type": "name", "properties": { "name": "urn:ogc:def:crs:OGC:1.3:CRS84" } },
"xy_coordinate_resolution": 0.0001,
"features": [
{ "type": "Feature", "properties": { "paraje": "Terroir De Zinio Parcela 624", "provincia": "La Rioja", "municipio": "Huércanos", "poligono": "14", "parcela": "624", "recinto": "2", "uso_sigpac": "VI", "superficie": 10091.8999, "orden": "<a href=\"https://www.boe.es/boe/dias/2019/07/30/pdfs/BOE-A-2019-11186.pdf\" target=\"_blank\">APA/816/2019</a>", "expediente": "VS-056/2019", "boe": "BOE_181_30072019", "area": 10099.6592, "promotor": "Bodegas Patrocinio Sociedad Cooperativa" }, "geometry": { "type": "MultiPolygon", "coordinates": [ [ [ [ -2.6622, 42.438 ], [ -2.663, 42.438 ], [ -2.6631, 42.4387 ], [ -2.6632, 42.439 ], [ -2.6632, 42.4392 ], [ -2.6628, 42.4392 ], [ -2.6628, 42.4392 ], [ -2.6628, 42.4392 ], [ -2.6626, 42.4392 ], [ -2.6625, 42.4392 ], [ -2.6625, 42.4392 ], [ -2.6624, 42.4391 ], [ -2.6624, 42.4391 ], [ -2.6622, 42.439 ], [ -2.6622, 42.439 ], [ -2.6622, 42.439 ], [ -2.6622, 42.4388 ], [ -2.6622, 42.4387 ], [ -2.6621, 42.4386 ], [ -2.6621, 42.4385 ], [ -2.6621, 42.4384 ], [ -2.662, 42.4383 ], [ -2.662, 42.4383 ], [ -2.662, 42.4382 ], [ -2.662, 42.4382 ], [ -2.662, 42.4382 ], [ -2.662, 42.4382 ], [ -2.662, 42.4381 ], [ -2.6622, 42.438 ] ] ] ] } },
{ "type": "Feature", "properties": { "paraje": "Caudum Bodegas Larraz", "provincia": "La Rioja", "municipio": "Huércanos", "poligono": "4", "parcela": "1", "recinto": "1", "uso_sigpac": "VI", "superficie": 14165.4397, "orden": "<a href=\"https://www.boe.es/boe/dias/2019/07/30/pdfs/BOE-A-2019-11186.pdf\" target=\"_blank\">APA/816/2019</a>", "expediente": "VS-069/2019", "boe": "BOE_181_30072019", "area": 14164.839, "promotor": "Bodegas y Viñedos Larraz S.L." }, "geometry": { "type": "MultiPolygon", "coordinates": [ [ [ [ -2.6342, 42.4357 ], [ -2.634, 42.4357 ], [ -2.6334, 42.4338 ], [ -2.6348, 42.4338 ], [ -2.6342, 42.4357 ] ] ] ] } },
{ "type": "Feature", "properties": { "paraje": "Livius", "provincia": "La Rioja", "municipio": "Huércanos", "poligono": "4", "parcela": "101", "recinto": "1", "uso_sigpac": "VI", "superficie": 12129.7364, "orden": "<a href=\"https://www.boe.es/boe/dias/2022/08/15/pdfs/BOE-A-2022-13770.pdf\" target=\"_blank\">APA/794/2022</a>", "expediente": "VS-155/2022", "boe": "BOE_195_15082022", "area": 12139.189, "promotor": "Bodegas Alvia S.L." }, "geometry": { "type": "MultiPolygon", "coordinates": [ [ [ [ -2.6448, 42.4314 ], [ -2.6448, 42.4315 ], [ -2.6449, 42.4316 ], [ -2.645, 42.4317 ], [ -2.645, 42.4317 ], [ -2.645, 42.4318 ], [ -2.645, 42.4319 ], [ -2.645, 42.4319 ], [ -2.645, 42.432 ], [ -2.645, 42.4322 ], [ -2.6451, 42.4323 ], [ -2.6452, 42.4324 ], [ -2.6452, 42.4324 ], [ -2.6453, 42.4325 ], [ -2.6453, 42.4325 ], [ -2.6453, 42.4325 ], [ -2.6454, 42.4326 ], [ -2.6453, 42.4327 ], [ -2.6452, 42.4327 ], [ -2.6449, 42.4329 ], [ -2.6448, 42.4329 ], [ -2.6447, 42.4328 ], [ -2.6447, 42.4327 ], [ -2.6447, 42.4327 ], [ -2.6446, 42.4326 ], [ -2.6445, 42.4325 ], [ -2.6444, 42.4324 ], [ -2.6444, 42.4324 ], [ -2.6443, 42.4322 ], [ -2.6441, 42.4318 ], [ -2.644, 42.4317 ], [ -2.6438, 42.4315 ], [ -2.6437, 42.4315 ], [ -2.6437, 42.4314 ], [ -2.6438, 42.4313 ], [ -2.644, 42.4313 ], [ -2.6441, 42.4312 ], [ -2.6441, 42.4312 ], [ -2.6442, 42.4312 ], [ -2.6448, 42.4314 ] ] ] ] } },
{ "type": "Feature", "properties": { "paraje": "Livius", "provincia": "La Rioja", "municipio": "Huércanos", "poligono": "4", "parcela": "92", "recinto": "2", "uso_sigpac": "VI", "superficie": 5847.488, "orden": "<a href=\"https://www.boe.es/boe/dias/2022/08/15/pdfs/BOE-A-2022-13770.pdf\" target=\"_blank\">APA/794/2022</a>", "expediente": "VS-155/2022", "boe": "BOE_195_15082022", "area": 5847.5014, "promotor": "Bodegas Alvia S.L." }, "geometry": { "type": "MultiPolygon", "coordinates": [ [ [ [ -2.6451, 42.4318 ], [ -2.6452, 42.4318 ], [ -2.6453, 42.4318 ], [ -2.6453, 42.4319 ], [ -2.6454, 42.4319 ], [ -2.6457, 42.4319 ], [ -2.6459, 42.4319 ], [ -2.6459, 42.432 ], [ -2.6458, 42.4321 ], [ -2.6457, 42.4323 ], [ -2.6463, 42.4324 ], [ -2.6464, 42.4324 ], [ -2.6463, 42.4328 ], [ -2.6461, 42.4328 ], [ -2.6461, 42.4328 ], [ -2.646, 42.4327 ], [ -2.6458, 42.4326 ], [ -2.6457, 42.4326 ], [ -2.6455, 42.4326 ], [ -2.6454, 42.4325 ], [ -2.6453, 42.4324 ], [ -2.6452, 42.4323 ], [ -2.6452, 42.4323 ], [ -2.6451, 42.4322 ], [ -2.6451, 42.4321 ], [ -2.6451, 42.432 ], [ -2.6451, 42.4319 ], [ -2.6451, 42.4319 ], [ -2.6451, 42.4318 ], [ -2.6451, 42.4318 ] ] ] ] } }
]
}
