{
"type": "FeatureCollection",
"name": "viñedos_singulares-leza",
"crs": { "type": "name", "properties": { "name": "urn:ogc:def:crs:OGC:1.3:CRS84" } },
"xy_coordinate_resolution": 1e-07,
"features": [
{ "type": "Feature", "properties": { "paraje": "Juan Valdelana Finca La Medika", "provincia": "Araba/Álava", "municipio": "Leza", "poligono": "3", "parcela": "384", "recinto": "1", "uso_sigpac": "VI", "superficie": 876.7062, "orden": "<a href=\"https://www.boe.es/boe/dias/2019/07/30/pdfs/BOE-A-2019-11186.pdf\" target=\"_blank\">APA/816/2019</a>", "expediente": "VS-002-08/2019", "boe": "BOE_181_30072019", "area": 877.3528, "promotor": "Juan pedro Valdelana Villuendas" }, "geometry": { "type": "MultiPolygon", "coordinates": [ [ [ [ -2.6445042, 42.5744399 ], [ -2.6440063, 42.5742182 ], [ -2.6440304, 42.5741537 ], [ -2.6440506, 42.5740943 ], [ -2.644066, 42.5740524 ], [ -2.6445651, 42.5742788 ], [ -2.644576, 42.5742837 ], [ -2.644518, 42.574416 ], [ -2.6445042, 42.5744399 ] ] ] ] } },
{ "type": "Feature", "properties": { "paraje": "Juan Valdelana Finca La Medika", "provincia": "Araba/Álava", "municipio": "Leza", "poligono": "3", "parcela": "385", "recinto": "1", "uso_sigpac": "VI", "superficie": 1498.6641, "orden": "<a href=\"https://www.boe.es/boe/dias/2019/07/30/pdfs/BOE-A-2019-11186.pdf\" target=\"_blank\">APA/816/2019</a>", "expediente": "VS-002-08/2019", "boe": "BOE_181_30072019", "area": 1500.1381, "promotor": "Juan pedro Valdelana Villuendas" }, "geometry": { "type": "MultiPolygon", "coordinates": [ [ [ [ -2.644576, 42.5742837 ], [ -2.6445651, 42.5742788 ], [ -2.644066, 42.5740524 ], [ -2.6440694, 42.5740431 ], [ -2.6440848, 42.5740111 ], [ -2.6440952, 42.5739749 ], [ -2.6440942, 42.5739208 ], [ -2.6440934, 42.5738797 ], [ -2.6449985, 42.5742799 ], [ -2.6449092, 42.5744349 ], [ -2.644576, 42.5742837 ] ] ] ] } },
{ "type": "Feature", "properties": { "paraje": "Juan Valdelana Finca La Medika", "provincia": "Araba/Álava", "municipio": "Leza", "poligono": "3", "parcela": "386", "recinto": "1", "uso_sigpac": "VI", "superficie": 3109.7847, "orden": "<a href=\"https://www.boe.es/boe/dias/2019/07/30/pdfs/BOE-A-2019-11186.pdf\" target=\"_blank\">APA/816/2019</a>", "expediente": "VS-002-08/2019", "boe": "BOE_181_30072019", "area": 3111.9462, "promotor": "Juan pedro Valdelana Villuendas" }, "geometry": { "type": "MultiPolygon", "coordinates": [ [ [ [ -2.6449985, 42.5742799 ], [ -2.6440934, 42.5738797 ], [ -2.6440929, 42.5738474 ], [ -2.6440968, 42.5737567 ], [ -2.6440933, 42.5736718 ], [ -2.6440872, 42.5736227 ], [ -2.6440834, 42.5735942 ], [ -2.6440897, 42.5735781 ], [ -2.6443148, 42.5736003 ], [ -2.6450297, 42.5739616 ], [ -2.6451324, 42.5740135 ], [ -2.6451174, 42.5740436 ], [ -2.6451165, 42.5740453 ], [ -2.6450194, 42.5742436 ], [ -2.6449985, 42.5742799 ] ] ] ] } },
{ "type": "Feature", "properties": { "paraje": "Carraquintana", "provincia": "Araba/Álava", "municipio": "Leza", "poligono": "2", "parcela": "70", "recinto": "1", "uso_sigpac": "VI", "superficie": 5877.5983, "orden": "<a href=\"https://www.boe.es/boe/dias/2019/07/30/pdfs/BOE-A-2019-11186.pdf\" target=\"_blank\">APA/816/2019</a>", "expediente": "VS-093/2019", "boe": "BOE_181_30072019", "area": 5882.2521, "promotor": "Bodegas Luis Cañas S.A." }, "geometry": { "type": "MultiPolygon", "coordinates": [ [ [ [ -2.6437832, 42.565855 ], [ -2.6437915, 42.5658253 ], [ -2.6438011, 42.5657781 ], [ -2.6438322, 42.5657009 ], [ -2.6438725, 42.5656109 ], [ -2.6439023, 42.5655342 ], [ -2.6439162, 42.5654727 ], [ -2.6439232, 42.5654167 ], [ -2.6439285, 42.5653611 ], [ -2.6439436, 42.5653015 ], [ -2.6439678, 42.5652216 ], [ -2.6440007, 42.5651339 ], [ -2.6440257, 42.5650687 ], [ -2.6440644, 42.5649997 ], [ -2.6440851, 42.5649396 ], [ -2.6440913, 42.564851 ], [ -2.6440833, 42.5647768 ], [ -2.6440687, 42.5647133 ], [ -2.6443761, 42.5646856 ], [ -2.6443758, 42.5646881 ], [ -2.6443743, 42.5647353 ], [ -2.6443792, 42.5648188 ], [ -2.644392, 42.5648719 ], [ -2.6444012, 42.5649594 ], [ -2.6444134, 42.5650406 ], [ -2.644424, 42.5651331 ], [ -2.6444321, 42.5652281 ], [ -2.6444352, 42.5653294 ], [ -2.6444487, 42.5654009 ], [ -2.6444695, 42.5654609 ], [ -2.6444897, 42.5655268 ], [ -2.6445104, 42.5656487 ], [ -2.6445088, 42.5657762 ], [ -2.6445163, 42.5658767 ], [ -2.64451, 42.5659661 ], [ -2.6445005, 42.5660339 ], [ -2.6444834, 42.5660703 ], [ -2.6444552, 42.5661199 ], [ -2.644434, 42.566152 ], [ -2.6444137, 42.5661228 ], [ -2.6443228, 42.5660539 ], [ -2.6442475, 42.5660024 ], [ -2.6441977, 42.5659737 ], [ -2.6441312, 42.565946 ], [ -2.6440604, 42.5659187 ], [ -2.6439517, 42.5658884 ], [ -2.6438016, 42.5658583 ], [ -2.6437832, 42.565855 ] ] ] ] } },
{ "type": "Feature", "properties": { "paraje": "Carraquintana", "provincia": "Araba/Álava", "municipio": "Leza", "poligono": "3", "parcela": "89", "recinto": "1", "uso_sigpac": "VI", "superficie": 3690.8933, "orden": "<a href=\"https://www.boe.es/boe/dias/2019/07/30/pdfs/BOE-A-2019-11186.pdf\" target=\"_blank\">APA/816/2019</a>", "expediente": "VS-093/2019", "boe": "BOE_181_30072019", "area": 3693.3738, "promotor": "Bodegas Luis Cañas S.A." }, "geometry": { "type": "MultiPolygon", "coordinates": [ [ [ [ -2.6438009, 42.5672994 ], [ -2.6438037, 42.5670727 ], [ -2.6437901, 42.5669556 ], [ -2.6437732, 42.5668677 ], [ -2.6437957, 42.5668175 ], [ -2.643856, 42.5667849 ], [ -2.6440112, 42.5667936 ], [ -2.6443197, 42.5668061 ], [ -2.6445466, 42.5668241 ], [ -2.6445486, 42.5668368 ], [ -2.6445626, 42.5668972 ], [ -2.6445605, 42.5669628 ], [ -2.6445659, 42.567022 ], [ -2.6445631, 42.5670834 ], [ -2.6445599, 42.5671407 ], [ -2.6445479, 42.5672092 ], [ -2.6445493, 42.5672531 ], [ -2.6445299, 42.5673183 ], [ -2.644516, 42.5673642 ], [ -2.6445146, 42.5673721 ], [ -2.6438009, 42.5672994 ] ] ] ] } },
{ "type": "Feature", "properties": { "paraje": "Carraquintana", "provincia": "Araba/Álava", "municipio": "Leza", "poligono": "3", "parcela": "90", "recinto": "1", "uso_sigpac": "VI", "superficie": 2467.0606, "orden": "<a href=\"https://www.boe.es/boe/dias/2019/07/30/pdfs/BOE-A-2019-11186.pdf\" target=\"_blank\">APA/816/2019</a>", "expediente": "VS-093/2019", "boe": "BOE_181_30072019", "area": 2469.2039, "promotor": "Bodegas Luis Cañas S.A." }, "geometry": { "type": "MultiPolygon", "coordinates": [ [ [ [ -2.6443197, 42.5668061 ], [ -2.6442831, 42.5665595 ], [ -2.6442343, 42.5663887 ], [ -2.6441889, 42.5663282 ], [ -2.6441754, 42.5663232 ], [ -2.6441576, 42.5662813 ], [ -2.6441251, 42.5662342 ], [ -2.6440586, 42.566195 ], [ -2.6439827, 42.5661627 ], [ -2.6439093, 42.5661277 ], [ -2.643841, 42.5661013 ], [ -2.6438006, 42.566085 ], [ -2.6437492, 42.5660656 ], [ -2.6437334, 42.5660402 ], [ -2.6436946, 42.5659867 ], [ -2.6436472, 42.5659387 ], [ -2.6436579, 42.5659043 ], [ -2.6436778, 42.5658985 ], [ -2.6437514, 42.5659105 ], [ -2.6439781, 42.5659568 ], [ -2.6441528, 42.5660265 ], [ -2.6443233, 42.5661491 ], [ -2.6444715, 42.5663379 ], [ -2.6445565, 42.5664382 ], [ -2.6445852, 42.566459 ], [ -2.6445909, 42.5664986 ], [ -2.6445831, 42.5665303 ], [ -2.6445684, 42.566562 ], [ -2.6445445, 42.5666015 ], [ -2.6445362, 42.5666419 ], [ -2.6445365, 42.5667066 ], [ -2.6445388, 42.5667731 ], [ -2.6445466, 42.5668241 ], [ -2.6443197, 42.5668061 ] ] ] ] } },
{ "type": "Feature", "properties": { "paraje": "Salas Aiurri", "provincia": "Araba/Álava", "municipio": "Leza", "poligono": "5", "parcela": "417", "recinto": "1", "uso_sigpac": "VI", "superficie": 19611.315, "orden": "<a href=\"https://www.boe.es/boe/dias/2023/07/26/pdfs/BOE-A-2023-17245.pdf\" target=\"_blank\">APA/873/2023</a>", "expediente": "VS-173/2023", "boe": "BOE/177_26072023", "area": 19626.5682, "promotor": "Alto de la Huesera S.L.U." }, "geometry": { "type": "MultiPolygon", "coordinates": [ [ [ [ -2.6305248, 42.5689732 ], [ -2.6304508, 42.5689915 ], [ -2.6303828, 42.5690204 ], [ -2.6303765, 42.5689912 ], [ -2.6303768, 42.5689379 ], [ -2.6304076, 42.568904 ], [ -2.6304211, 42.568841 ], [ -2.6304787, 42.5687376 ], [ -2.6304467, 42.5687279 ], [ -2.6304043, 42.5687309 ], [ -2.6303407, 42.5687501 ], [ -2.630301, 42.5688034 ], [ -2.6302853, 42.5688648 ], [ -2.6303352, 42.5688718 ], [ -2.6303375, 42.568907 ], [ -2.6303104, 42.5690655 ], [ -2.6302749, 42.5691284 ], [ -2.6301692, 42.5692494 ], [ -2.6300769, 42.56933 ], [ -2.6299339, 42.5694395 ], [ -2.6298146, 42.569531 ], [ -2.6297779, 42.5695459 ], [ -2.6296792, 42.5696211 ], [ -2.6295645, 42.5696779 ], [ -2.6293705, 42.5697738 ], [ -2.6292737, 42.5697889 ], [ -2.6292348, 42.5697778 ], [ -2.6291388, 42.5696956 ], [ -2.6289803, 42.5695295 ], [ -2.6288185, 42.5693562 ], [ -2.6287914, 42.5693108 ], [ -2.6288062, 42.5692561 ], [ -2.6288273, 42.5692228 ], [ -2.6289294, 42.5691397 ], [ -2.6291141, 42.5689807 ], [ -2.6292224, 42.5689262 ], [ -2.6293144, 42.5689027 ], [ -2.6294452, 42.5688602 ], [ -2.6295083, 42.5688259 ], [ -2.62967, 42.5687347 ], [ -2.6297395, 42.5686944 ], [ -2.6298011, 42.5686386 ], [ -2.6298159, 42.5685969 ], [ -2.6298227, 42.5685231 ], [ -2.6298488, 42.5684743 ], [ -2.6299168, 42.5684197 ], [ -2.629959, 42.568377 ], [ -2.629985, 42.5683354 ], [ -2.6299757, 42.5682782 ], [ -2.6299711, 42.5682329 ], [ -2.6300039, 42.5681508 ], [ -2.6301259, 42.5679617 ], [ -2.6302137, 42.5678226 ], [ -2.6302478, 42.5677798 ], [ -2.6302626, 42.5677381 ], [ -2.6302646, 42.5677207 ], [ -2.6302654, 42.5677138 ], [ -2.6302612, 42.5676868 ], [ -2.6302808, 42.5676921 ], [ -2.6308004, 42.567833 ], [ -2.6309463, 42.5678718 ], [ -2.6312962, 42.5679648 ], [ -2.6312884, 42.5679706 ], [ -2.6312317, 42.5680121 ], [ -2.6311909, 42.5680578 ], [ -2.6311487, 42.5681039 ], [ -2.6311143, 42.5681716 ], [ -2.6311013, 42.5681901 ], [ -2.6310808, 42.568219 ], [ -2.6310444, 42.5682784 ], [ -2.6310178, 42.5683259 ], [ -2.631015, 42.5683484 ], [ -2.631048, 42.5683651 ], [ -2.6310809, 42.5683786 ], [ -2.6311279, 42.5684099 ], [ -2.6311804, 42.5684429 ], [ -2.6311899, 42.5684477 ], [ -2.6312421, 42.5684737 ], [ -2.6312205, 42.5684908 ], [ -2.631167, 42.5685177 ], [ -2.6310933, 42.5685692 ], [ -2.6310338, 42.5686173 ], [ -2.6309578, 42.5686793 ], [ -2.6308664, 42.5687455 ], [ -2.6307884, 42.568796 ], [ -2.6307117, 42.5688516 ], [ -2.6306336, 42.5689022 ], [ -2.6305329, 42.5689676 ], [ -2.6305248, 42.5689732 ] ] ] ] } },
{ "type": "Feature", "properties": { "paraje": "Salas Aiurri", "provincia": "Araba/Álava", "municipio": "Leza", "poligono": "5", "parcela": "418", "recinto": "1", "uso_sigpac": "VI", "superficie": 7266.209, "orden": "<a href=\"https://www.boe.es/boe/dias/2023/07/26/pdfs/BOE-A-2023-17245.pdf\" target=\"_blank\">APA/873/2023</a>", "expediente": "VS-173/2023", "boe": "BOE/177_26072023", "area": 7271.8612, "promotor": "Alto de la Huesera S.L.U." }, "geometry": { "type": "MultiPolygon", "coordinates": [ [ [ [ -2.6302808, 42.5676921 ], [ -2.6302728, 42.5676372 ], [ -2.630279, 42.5675686 ], [ -2.6303026, 42.5675172 ], [ -2.6303552, 42.567443 ], [ -2.6304333, 42.5673289 ], [ -2.6304472, 42.5672632 ], [ -2.6304867, 42.5671246 ], [ -2.6305059, 42.5670542 ], [ -2.6305747, 42.5670541 ], [ -2.6306796, 42.5670782 ], [ -2.6307974, 42.5671053 ], [ -2.6309105, 42.5671145 ], [ -2.631002, 42.5671113 ], [ -2.6311056, 42.5670867 ], [ -2.6312098, 42.5670471 ], [ -2.6312575, 42.5672758 ], [ -2.6312667, 42.567363 ], [ -2.6313245, 42.5673947 ], [ -2.6314771, 42.5674295 ], [ -2.6316373, 42.5674817 ], [ -2.6316296, 42.567497 ], [ -2.6316216, 42.5675178 ], [ -2.6316033, 42.5675652 ], [ -2.6315997, 42.5675747 ], [ -2.63157, 42.5676299 ], [ -2.6315652, 42.5676387 ], [ -2.6315259, 42.567715 ], [ -2.6315146, 42.5677336 ], [ -2.6314865, 42.5677796 ], [ -2.6314714, 42.5678028 ], [ -2.6314506, 42.5678348 ], [ -2.6314077, 42.5678756 ], [ -2.6313589, 42.5679199 ], [ -2.6312975, 42.5679639 ], [ -2.6312962, 42.5679648 ], [ -2.6309463, 42.5678718 ], [ -2.6308004, 42.567833 ], [ -2.6302808, 42.5676921 ] ] ] ] } },
{ "type": "Feature", "properties": { "paraje": "Carralaguardia Bideona", "provincia": "Araba/Álava", "municipio": "Leza", "poligono": "5", "parcela": "158", "recinto": "1", "uso_sigpac": "VI", "superficie": 1059.5572, "orden": "<a href=\"https://www.boe.es/boe/dias/2023/07/26/pdfs/BOE-A-2023-17245.pdf\" target=\"_blank\">APA/873/2023</a>", "expediente": "VS-176/2023", "boe": "BOE/177_26072023", "area": 1060.3805, "promotor": "Bodegas Bideona S.L.U." }, "geometry": { "type": "MultiPolygon", "coordinates": [ [ [ [ -2.6232357, 42.5673353 ], [ -2.6231697, 42.5671765 ], [ -2.6231217, 42.5671266 ], [ -2.6232109, 42.5670929 ], [ -2.6234132, 42.5670226 ], [ -2.6235919, 42.5669535 ], [ -2.6237559, 42.5668944 ], [ -2.6237748, 42.5669136 ], [ -2.6238062, 42.5669392 ], [ -2.6237735, 42.5669627 ], [ -2.6236835, 42.5670486 ], [ -2.6236242, 42.5671059 ], [ -2.6235451, 42.5671697 ], [ -2.6234721, 42.5672234 ], [ -2.6233668, 42.5672737 ], [ -2.6232744, 42.567317 ], [ -2.6232357, 42.5673353 ] ] ] ] } },
{ "type": "Feature", "properties": { "paraje": "Carralaguardia Bideona", "provincia": "Araba/Álava", "municipio": "Leza", "poligono": "5", "parcela": "233", "recinto": "1", "uso_sigpac": "VI", "superficie": 3974.8903, "orden": "<a href=\"https://www.boe.es/boe/dias/2023/07/26/pdfs/BOE-A-2023-17245.pdf\" target=\"_blank\">APA/873/2023</a>", "expediente": "VS-176/2023", "boe": "BOE/177_26072023", "area": 3977.9769, "promotor": "Bodegas Bideona S.L.U." }, "geometry": { "type": "MultiPolygon", "coordinates": [ [ [ [ -2.6200896, 42.5700839 ], [ -2.620056, 42.5700658 ], [ -2.6200523, 42.570043 ], [ -2.6200744, 42.5700116 ], [ -2.6201135, 42.5699374 ], [ -2.6201255, 42.5698755 ], [ -2.6201129, 42.5698201 ], [ -2.6200747, 42.5697788 ], [ -2.6200359, 42.5697465 ], [ -2.619989, 42.569711 ], [ -2.6199446, 42.5696756 ], [ -2.6199069, 42.5696369 ], [ -2.6198487, 42.5695902 ], [ -2.6197941, 42.5695387 ], [ -2.6197545, 42.5694904 ], [ -2.6197092, 42.569433 ], [ -2.6196507, 42.5693683 ], [ -2.6195919, 42.5693137 ], [ -2.6195842, 42.5693064 ], [ -2.6199061, 42.5691766 ], [ -2.6200184, 42.5691339 ], [ -2.6200496, 42.5691715 ], [ -2.6200885, 42.5692565 ], [ -2.6201269, 42.5693488 ], [ -2.6201641, 42.5694471 ], [ -2.6201762, 42.5695217 ], [ -2.6202006, 42.5695972 ], [ -2.6202381, 42.5696712 ], [ -2.6202684, 42.5697192 ], [ -2.6202883, 42.5697259 ], [ -2.6203204, 42.5697187 ], [ -2.6203699, 42.5697152 ], [ -2.6204289, 42.5697207 ], [ -2.6205222, 42.5697471 ], [ -2.6206098, 42.5697758 ], [ -2.6207188, 42.5697796 ], [ -2.6208027, 42.5697959 ], [ -2.6208867, 42.5698191 ], [ -2.6208907, 42.5698388 ], [ -2.6209102, 42.5698699 ], [ -2.6209286, 42.5699046 ], [ -2.6209232, 42.5699173 ], [ -2.6209202, 42.5699243 ], [ -2.6208877, 42.5699456 ], [ -2.6208304, 42.5699736 ], [ -2.6207596, 42.5700131 ], [ -2.620703, 42.5700382 ], [ -2.6206298, 42.5700369 ], [ -2.6205258, 42.5700327 ], [ -2.6204308, 42.5700233 ], [ -2.6203986, 42.5700227 ], [ -2.6203342, 42.5700217 ], [ -2.6202544, 42.5700346 ], [ -2.6201916, 42.5700557 ], [ -2.6200896, 42.5700839 ] ] ] ] } },
{ "type": "Feature", "properties": { "paraje": "Carralaguardia Bideona", "provincia": "Araba/Álava", "municipio": "Leza", "poligono": "5", "parcela": "234", "recinto": "1", "uso_sigpac": "VI", "superficie": 530.1787, "orden": "<a href=\"https://www.boe.es/boe/dias/2023/07/26/pdfs/BOE-A-2023-17245.pdf\" target=\"_blank\">APA/873/2023</a>", "expediente": "VS-176/2023", "boe": "BOE/177_26072023", "area": 530.5904, "promotor": "Bodegas Bideona S.L.U." }, "geometry": { "type": "MultiPolygon", "coordinates": [ [ [ [ -2.6195842, 42.5693064 ], [ -2.6195247, 42.56925 ], [ -2.6194855, 42.5692092 ], [ -2.6196042, 42.569166 ], [ -2.6196893, 42.5691347 ], [ -2.6197744, 42.5691075 ], [ -2.6198546, 42.5690712 ], [ -2.6199474, 42.5690337 ], [ -2.6199452, 42.5690384 ], [ -2.6199808, 42.569056 ], [ -2.6200184, 42.5691339 ], [ -2.6199061, 42.5691766 ], [ -2.6195842, 42.5693064 ] ] ] ] } },
{ "type": "Feature", "properties": { "paraje": "Carralaguardia Bideona", "provincia": "Araba/Álava", "municipio": "Leza", "poligono": "5", "parcela": "301", "recinto": "1", "uso_sigpac": "VI", "superficie": 1553.9597, "orden": "<a href=\"https://www.boe.es/boe/dias/2023/07/26/pdfs/BOE-A-2023-17245.pdf\" target=\"_blank\">APA/873/2023</a>", "expediente": "VS-176/2023", "boe": "BOE/177_26072023", "area": 1555.1672, "promotor": "Bodegas Bideona S.L.U." }, "geometry": { "type": "MultiPolygon", "coordinates": [ [ [ [ -2.6235938, 42.5679589 ], [ -2.6237895, 42.5678253 ], [ -2.623943, 42.5677229 ], [ -2.624077, 42.5676367 ], [ -2.6241466, 42.567588 ], [ -2.624165, 42.5676055 ], [ -2.6241672, 42.5676684 ], [ -2.6241277, 42.5678026 ], [ -2.6241249, 42.5678427 ], [ -2.6241994, 42.5679189 ], [ -2.6241533, 42.5679432 ], [ -2.6240901, 42.56799 ], [ -2.6239991, 42.5680452 ], [ -2.62391, 42.568105 ], [ -2.6238436, 42.5681431 ], [ -2.6237956, 42.5681645 ], [ -2.6237455, 42.5681704 ], [ -2.6237277, 42.568172 ], [ -2.6236435, 42.5680355 ], [ -2.6235938, 42.5679589 ] ] ] ] } },
{ "type": "Feature", "properties": { "paraje": "Carralaguardia Bideona", "provincia": "Araba/Álava", "municipio": "Leza", "poligono": "5", "parcela": "303", "recinto": "1", "uso_sigpac": "VI", "superficie": 1993.3834, "orden": "<a href=\"https://www.boe.es/boe/dias/2023/07/26/pdfs/BOE-A-2023-17245.pdf\" target=\"_blank\">APA/873/2023</a>", "expediente": "VS-176/2023", "boe": "BOE/177_26072023", "area": 1994.9324, "promotor": "Bodegas Bideona S.L.U." }, "geometry": { "type": "MultiPolygon", "coordinates": [ [ [ [ -2.6244592, 42.5675304 ], [ -2.6244585, 42.5675298 ], [ -2.6243625, 42.567442 ], [ -2.6242459, 42.5673329 ], [ -2.6241445, 42.5672399 ], [ -2.6241268, 42.5672237 ], [ -2.624042, 42.5671739 ], [ -2.6239602, 42.5671222 ], [ -2.6239024, 42.567064 ], [ -2.6238464, 42.5670098 ], [ -2.6239287, 42.5669431 ], [ -2.6241329, 42.5668567 ], [ -2.6241332, 42.566857 ], [ -2.6242061, 42.5669302 ], [ -2.6243754, 42.5670945 ], [ -2.6245397, 42.5672523 ], [ -2.6246712, 42.5673832 ], [ -2.624597, 42.567451 ], [ -2.624525, 42.5675008 ], [ -2.6244592, 42.5675304 ] ] ] ] } },
{ "type": "Feature", "properties": { "paraje": "Carralaguardia Bideona", "provincia": "Araba/Álava", "municipio": "Leza", "poligono": "5", "parcela": "304", "recinto": "1", "uso_sigpac": "VI", "superficie": 1642.908, "orden": "<a href=\"https://www.boe.es/boe/dias/2023/07/26/pdfs/BOE-A-2023-17245.pdf\" target=\"_blank\">APA/873/2023</a>", "expediente": "VS-176/2023", "boe": "BOE/177_26072023", "area": 1644.1848, "promotor": "Bodegas Bideona S.L.U." }, "geometry": { "type": "MultiPolygon", "coordinates": [ [ [ [ -2.6246712, 42.5673832 ], [ -2.6245397, 42.5672523 ], [ -2.6243754, 42.5670945 ], [ -2.6242061, 42.5669302 ], [ -2.6241332, 42.566857 ], [ -2.6242675, 42.5668046 ], [ -2.6243481, 42.5668013 ], [ -2.6243706, 42.5668007 ], [ -2.6244137, 42.5668384 ], [ -2.6244807, 42.5668956 ], [ -2.6245796, 42.5669797 ], [ -2.6246186, 42.5670115 ], [ -2.6246304, 42.5670297 ], [ -2.6247091, 42.5670741 ], [ -2.6248508, 42.5670996 ], [ -2.6248882, 42.5671287 ], [ -2.6248882, 42.5671324 ], [ -2.6248807, 42.5671843 ], [ -2.6248752, 42.5672297 ], [ -2.6248551, 42.5672665 ], [ -2.6248076, 42.5673173 ], [ -2.6247289, 42.5673688 ], [ -2.624687, 42.5673989 ], [ -2.6246712, 42.5673832 ] ] ] ] } },
{ "type": "Feature", "properties": { "paraje": "Cofrades Bideona", "provincia": "Araba/Álava", "municipio": "Leza", "poligono": "2", "parcela": "103", "recinto": "1", "uso_sigpac": "VI", "superficie": 2888.0339, "orden": "<a href=\"https://www.boe.es/boe/dias/2023/07/26/pdfs/BOE-A-2023-17245.pdf\" target=\"_blank\">APA/873/2023</a>", "expediente": "VS-177/2023", "boe": "BOE/177_26072023", "area": 2890.2845, "promotor": "Bodegas Bideona S.L.U." }, "geometry": { "type": "MultiPolygon", "coordinates": [ [ [ [ -2.6431304, 42.5616015 ], [ -2.6419028, 42.5609083 ], [ -2.6418669, 42.560888 ], [ -2.6419299, 42.5608833 ], [ -2.6420069, 42.5608733 ], [ -2.6421161, 42.5608504 ], [ -2.6422359, 42.5608198 ], [ -2.64225, 42.5608276 ], [ -2.6432541, 42.5613789 ], [ -2.6432303, 42.5614099 ], [ -2.6431987, 42.561456 ], [ -2.6431564, 42.561512 ], [ -2.6431347, 42.5615509 ], [ -2.6431258, 42.5615696 ], [ -2.6431256, 42.5615838 ], [ -2.6431304, 42.5616015 ] ] ] ] } },
{ "type": "Feature", "properties": { "paraje": "Cofrades Bideona", "provincia": "Araba/Álava", "municipio": "Leza", "poligono": "2", "parcela": "104", "recinto": "1", "uso_sigpac": "VI", "superficie": 6004.08, "orden": "<a href=\"https://www.boe.es/boe/dias/2023/07/26/pdfs/BOE-A-2023-17245.pdf\" target=\"_blank\">APA/873/2023</a>", "expediente": "VS-177/2023", "boe": "BOE/177_26072023", "area": 6008.7592, "promotor": "Bodegas Bideona S.L.U." }, "geometry": { "type": "MultiPolygon", "coordinates": [ [ [ [ -2.6432541, 42.5613789 ], [ -2.64225, 42.5608276 ], [ -2.6424974, 42.5607301 ], [ -2.6430414, 42.5605484 ], [ -2.6431023, 42.5605417 ], [ -2.6433075, 42.5606686 ], [ -2.6433939, 42.5607156 ], [ -2.6435901, 42.5607681 ], [ -2.6436648, 42.5608151 ], [ -2.6437067, 42.5608584 ], [ -2.6436975, 42.5609222 ], [ -2.6436852, 42.5609565 ], [ -2.643678, 42.5609798 ], [ -2.6436684, 42.5610068 ], [ -2.6436531, 42.5610397 ], [ -2.6436025, 42.5611094 ], [ -2.6435065, 42.5611966 ], [ -2.643401, 42.5612944 ], [ -2.6433231, 42.5613731 ], [ -2.6433025, 42.5614055 ], [ -2.6432541, 42.5613789 ] ] ] ] } },
{ "type": "Feature", "properties": { "paraje": "Cofrades Bideona", "provincia": "Araba/Álava", "municipio": "Leza", "poligono": "2", "parcela": "108", "recinto": "1", "uso_sigpac": "VI", "superficie": 779.78325, "orden": "<a href=\"https://www.boe.es/boe/dias/2023/07/26/pdfs/BOE-A-2023-17245.pdf\" target=\"_blank\">APA/873/2023</a>", "expediente": "VS-177/2023", "boe": "BOE/177_26072023", "area": 780.391, "promotor": "Bodegas Bideona S.L.U." }, "geometry": { "type": "MultiPolygon", "coordinates": [ [ [ [ -2.644295, 42.5603194 ], [ -2.6438205, 42.5600493 ], [ -2.6438255, 42.5600457 ], [ -2.6438618, 42.5600216 ], [ -2.6438939, 42.5600152 ], [ -2.6440462, 42.5599812 ], [ -2.6441498, 42.5599946 ], [ -2.644228, 42.5600225 ], [ -2.6442956, 42.5601242 ], [ -2.6443371, 42.5602422 ], [ -2.6443185, 42.5602766 ], [ -2.644295, 42.5603194 ] ] ] ] } },
{ "type": "Feature", "properties": { "paraje": "Los Salbos Bideona", "provincia": "Araba/Álava", "municipio": "Leza", "poligono": "6", "parcela": "292", "recinto": "1", "uso_sigpac": "VI", "superficie": 2012.0045, "orden": "<a href=\"https://www.boe.es/boe/dias/2024/07/31/pdfs/BOE-A-2024-15839.pdf\" target=\"_blank\">APA/808/2024</a>", "expediente": "VS-192/2024", "boe": "BOE/184_31072024", "area": 2013.5675, "promotor": "Bodega Bideona S.L.U." }, "geometry": { "type": "MultiPolygon", "coordinates": [ [ [ [ -2.6228336, 42.5551814 ], [ -2.6227433, 42.5552002 ], [ -2.622598, 42.5552463 ], [ -2.6224724, 42.5552822 ], [ -2.6223777, 42.5553161 ], [ -2.6223547, 42.5552786 ], [ -2.6223255, 42.5552061 ], [ -2.622304, 42.5551336 ], [ -2.6222854, 42.5550229 ], [ -2.6222637, 42.5549809 ], [ -2.6222118, 42.5548311 ], [ -2.6222108, 42.5548184 ], [ -2.6222142, 42.5548143 ], [ -2.6222592, 42.5548071 ], [ -2.6223352, 42.5548233 ], [ -2.6224457, 42.5548297 ], [ -2.6225856, 42.5548377 ], [ -2.6227783, 42.5548488 ], [ -2.6227871, 42.5548953 ], [ -2.6227876, 42.5548982 ], [ -2.6227882, 42.5548982 ], [ -2.6227885, 42.554903 ], [ -2.6228061, 42.554998 ], [ -2.6228336, 42.5551814 ] ] ] ] } },
{ "type": "Feature", "properties": { "paraje": "Los Salbos Bideona", "provincia": "Araba/Álava", "municipio": "Leza", "poligono": "6", "parcela": "292", "recinto": "3", "uso_sigpac": "VI", "superficie": 215.8696, "orden": "<a href=\"https://www.boe.es/boe/dias/2024/07/31/pdfs/BOE-A-2024-15839.pdf\" target=\"_blank\">APA/808/2024</a>", "expediente": "VS-192/2024", "boe": "BOE/184_31072024", "area": 216.0373, "promotor": "Bodega Bideona S.L.U." }, "geometry": { "type": "MultiPolygon", "coordinates": [ [ [ [ -2.6228393, 42.5548998 ], [ -2.6227882, 42.5548982 ], [ -2.6227876, 42.5548982 ], [ -2.6227871, 42.5548953 ], [ -2.6227783, 42.5548488 ], [ -2.6230071, 42.5548471 ], [ -2.6232211, 42.5548383 ], [ -2.6232296, 42.5548406 ], [ -2.6232292, 42.5548486 ], [ -2.6232384, 42.5548654 ], [ -2.6232425, 42.5548704 ], [ -2.6232552, 42.5548861 ], [ -2.6232085, 42.5548897 ], [ -2.6231564, 42.5548938 ], [ -2.6230484, 42.5548985 ], [ -2.6229281, 42.5549001 ], [ -2.6228393, 42.5548998 ] ] ] ] } }
]
}
