{
"type": "FeatureCollection",
"name": "viñedos_singulares-uruñuela",
"crs": { "type": "name", "properties": { "name": "urn:ogc:def:crs:OGC:1.3:CRS84" } },
"xy_coordinate_resolution": 1e-07,
"features": [
{ "type": "Feature", "properties": { "paraje": "Los Topos by Leza García", "provincia": "La Rioja", "municipio": "Uruñuela", "poligono": "3", "parcela": "34", "recinto": "1", "uso_sigpac": "VI", "superficie": 1692.704, "orden": "<a href=\"https://www.boe.es/boe/dias/2021/05/14/pdfs/BOE-A-2021-8011.pdf\" target=\"_blank\">APA/468/2021</a>", "expediente": "VS-124/2021", "boe": "BOE_115_14052021", "area": 1693.8722, "promotor": "Bodegas y Viñedos Leza García S.L." }, "geometry": { "type": "MultiPolygon", "coordinates": [ [ [ [ -2.7000451, 42.4646347 ], [ -2.7011764, 42.4649857 ], [ -2.7011242, 42.4651348 ], [ -2.6999751, 42.4647726 ], [ -2.7000451, 42.4646347 ] ] ] ] } },
{ "type": "Feature", "properties": { "paraje": "Sínodo Centales", "provincia": "La Rioja", "municipio": "Uruñuela", "poligono": "6", "parcela": "250", "recinto": "1", "uso_sigpac": "VI", "superficie": 1578.0381, "orden": "<a href=\"https://www.boe.es/boe/dias/2021/05/14/pdfs/BOE-A-2021-8011.pdf\" target=\"_blank\">APA/468/2021</a>", "expediente": "VS-127/2021", "boe": "BOE_115_14052021", "area": 1579.0168, "promotor": "Juan Antonio Blanco Hernáez" }, "geometry": { "type": "MultiPolygon", "coordinates": [ [ [ [ -2.6922586, 42.4444214 ], [ -2.692268, 42.4444239 ], [ -2.6923096, 42.4444348 ], [ -2.6923659, 42.4444425 ], [ -2.6923965, 42.4444369 ], [ -2.6923965, 42.4444688 ], [ -2.6924013, 42.4445301 ], [ -2.6924014, 42.444533 ], [ -2.6924462, 42.4454871 ], [ -2.6924497, 42.4454973 ], [ -2.6924505, 42.4454997 ], [ -2.6922756, 42.4455372 ], [ -2.6922705, 42.4455381 ], [ -2.6922705, 42.4455365 ], [ -2.6922706, 42.4455204 ], [ -2.6922557, 42.4444637 ], [ -2.6922534, 42.4444353 ], [ -2.6922535, 42.4444219 ], [ -2.6922586, 42.4444214 ] ] ] ] } },
{ "type": "Feature", "properties": { "paraje": "Los Natos de Leza García", "provincia": "La Rioja", "municipio": "Uruñuela", "poligono": "4", "parcela": "154", "recinto": "1", "uso_sigpac": "VI", "superficie": 785.2296, "orden": "<a href=\"https://www.boe.es/boe/dias/2021/05/14/pdfs/BOE-A-2021-8011.pdf\" target=\"_blank\">APA/468/2021</a>", "expediente": "VS-142/2021", "boe": "BOE_115_14052021", "area": 785.8129, "promotor": "Bodegas y Viñedos Leza García S.L." }, "geometry": { "type": "MultiPolygon", "coordinates": [ [ [ [ -2.7002144, 42.4553421 ], [ -2.7002763, 42.4553643 ], [ -2.7003552, 42.455398 ], [ -2.7000273, 42.4559571 ], [ -2.7000194, 42.4559706 ], [ -2.6999183, 42.4559257 ], [ -2.6999236, 42.4559153 ], [ -2.7002144, 42.4553421 ] ] ] ] } },
{ "type": "Feature", "properties": { "paraje": "Los Natos de Leza García", "provincia": "La Rioja", "municipio": "Uruñuela", "poligono": "4", "parcela": "186", "recinto": "1", "uso_sigpac": "VI", "superficie": 648.9288, "orden": "<a href=\"https://www.boe.es/boe/dias/2021/05/14/pdfs/BOE-A-2021-8011.pdf\" target=\"_blank\">APA/468/2021</a>", "expediente": "VS-142/2021", "boe": "BOE_115_14052021", "area": 649.3707, "promotor": "Bodegas y Viñedos Leza García S.L." }, "geometry": { "type": "MultiPolygon", "coordinates": [ [ [ [ -2.6998941, 42.455961 ], [ -2.699998, 42.4559998 ], [ -2.6999275, 42.4561439 ], [ -2.6999265, 42.4561459 ], [ -2.6998218, 42.4563526 ], [ -2.6997106, 42.4565718 ], [ -2.6996047, 42.4565405 ], [ -2.6998941, 42.455961 ] ] ] ] } },
{ "type": "Feature", "properties": { "paraje": "Sínodo Raposeras", "provincia": "La Rioja", "municipio": "Uruñuela", "poligono": "5", "parcela": "90", "recinto": "1 parcial", "uso_sigpac": "VI", "superficie": 1617.766, "orden": "<a href=\"https://www.boe.es/boe/dias/2019/07/30/pdfs/BOE-A-2019-11186.pdf\" target=\"_blank\">APA/816/2019</a>", "expediente": "VS-051/2019", "boe": "BOE/181_30072019", "area": 1617.766, "promotor": "Juan Antonio Blanco Hernáez" }, "geometry": { "type": "MultiPolygon", "coordinates": [ [ [ [ -2.6780238, 42.4633433 ], [ -2.6779266, 42.463325 ], [ -2.678173, 42.4627133 ], [ -2.6781366, 42.4626952 ], [ -2.6784314, 42.4621196 ], [ -2.6785773, 42.4621471 ], [ -2.6780238, 42.4633433 ] ] ] ] } },
{ "type": "Feature", "properties": { "paraje": "Sínodo Centales", "provincia": "La Rioja", "municipio": "Uruñuela", "poligono": "6", "parcela": "140", "recinto": "1", "uso_sigpac": "VI", "superficie": 2035.9545, "orden": null, "expediente": "VS-127/2021", "boe": "BOE_184_31072024", "area": 2037.5522, "promotor": "Juan Antonio Blanco Hernáez" }, "geometry": { "type": "MultiPolygon", "coordinates": [ [ [ [ -2.6925998, 42.4454976 ], [ -2.6925414, 42.4461633 ], [ -2.6928547, 42.4461926 ], [ -2.6928487, 42.4462755 ], [ -2.6929736, 42.446298 ], [ -2.6928578, 42.4466544 ], [ -2.6924937, 42.4465163 ], [ -2.6924477, 42.4465011 ], [ -2.6924761, 42.4461802 ], [ -2.6924861, 42.4460661 ], [ -2.6924902, 42.4460197 ], [ -2.6924908, 42.4460136 ], [ -2.6924916, 42.4460044 ], [ -2.6925349, 42.4455149 ], [ -2.6925998, 42.4454976 ] ] ] ] } },
{ "type": "Feature", "properties": { "paraje": "Sínodo Centales", "provincia": "La Rioja", "municipio": "Uruñuela", "poligono": "6", "parcela": "251", "recinto": "1", "uso_sigpac": "VI", "superficie": 1498.7012, "orden": "<a href=\"https://www.boe.es/boe/dias/2021/05/14/pdfs/BOE-A-2021-8011.pdf\" target=\"_blank\">APA/468/2021</a>", "expediente": "VS-127/2021", "boe": "BOE_134_04062025", "area": 1499.8771, "promotor": "Juan Antonio Blanco Hernáez" }, "geometry": { "type": "MultiPolygon", "coordinates": [ [ [ [ -2.6922535, 42.4444219 ], [ -2.6922534, 42.4444353 ], [ -2.6922557, 42.4444637 ], [ -2.6922706, 42.4455204 ], [ -2.6922705, 42.4455365 ], [ -2.6922705, 42.4455381 ], [ -2.6922363, 42.4455442 ], [ -2.6921512, 42.4455594 ], [ -2.692148, 42.4455436 ], [ -2.6920905, 42.4445301 ], [ -2.6920809, 42.4444385 ], [ -2.6922535, 42.4444219 ] ] ] ] } },
{ "type": "Feature", "properties": { "paraje": "Sínodo Raposeras", "provincia": "La Rioja", "municipio": "Uruñuela", "poligono": "5", "parcela": "100", "recinto": "1", "uso_sigpac": "VI", "superficie": 2869.26349, "orden": "<a href=\"https://www.boe.es/boe/dias/2019/07/30/pdfs/BOE-A-2019-11186.pdf\" target=\"_blank\">APA/816/2019</a>", "expediente": "VS-051/2019", "boe": "BOE_134_04062025", "area": 2871.5103303287178, "promotor": "Juan Antonio Blanco Hernáez" }, "geometry": { "type": "MultiPolygon", "coordinates": [ [ [ [ -2.6767512, 42.4611502 ], [ -2.6768, 42.4611634 ], [ -2.6768463, 42.4611886 ], [ -2.6769036, 42.4612668 ], [ -2.6761992, 42.4628831 ], [ -2.6761775, 42.4628773 ], [ -2.6760436, 42.4628386 ], [ -2.6767512, 42.4611502 ] ] ] ] } }
]
}
