{
"type": "FeatureCollection",
"name": "viñedos_singulares-baños_de_rioja",
"crs": { "type": "name", "properties": { "name": "urn:ogc:def:crs:OGC:1.3:CRS84" } },
"xy_coordinate_resolution": 1e-07,
"features": [
{ "type": "Feature", "properties": { "paraje": "Finca La Emperatriz", "provincia": "La Rioja", "municipio": "Baños de Rioja", "poligono": "5", "parcela": "10", "recinto": "1", "uso_sigpac": "VI", "superficie": 219472.1161, "orden": "<a href=\"https://www.boe.es/boe/dias/2019/07/30/pdfs/BOE-A-2019-11186.pdf\" target=\"_blank\">APA/816/2019</a>", "expediente": "VS-068/2019", "boe": "BOE_181_30072019", "area": 219647.1631, "promotor": "Viñedos y Bodegas Hermanos Hernáiz S.L.U." }, "geometry": { "type": "MultiPolygon", "coordinates": [ [ [ [ -2.9478779, 42.488769 ], [ -2.9478911, 42.4887693 ], [ -2.9479316, 42.4887703 ], [ -2.9482592, 42.4887852 ], [ -2.9485145, 42.4887941 ], [ -2.9485317, 42.4887957 ], [ -2.9486942, 42.4888113 ], [ -2.9486945, 42.4888168 ], [ -2.948696, 42.4888398 ], [ -2.9487203, 42.4892144 ], [ -2.9487255, 42.4892944 ], [ -2.9487254, 42.4892967 ], [ -2.9487201, 42.4894131 ], [ -2.948714, 42.4894563 ], [ -2.9487139, 42.489457 ], [ -2.9487138, 42.4894576 ], [ -2.948704, 42.4895269 ], [ -2.9487019, 42.4895488 ], [ -2.9487018, 42.48955 ], [ -2.9487013, 42.4895546 ], [ -2.9486973, 42.4895955 ], [ -2.9486902, 42.4896223 ], [ -2.9486735, 42.4896859 ], [ -2.9485484, 42.4899921 ], [ -2.9485481, 42.4899926 ], [ -2.9484661, 42.4901934 ], [ -2.9484083, 42.4903528 ], [ -2.9484044, 42.4903635 ], [ -2.9483983, 42.4903803 ], [ -2.9483867, 42.4904123 ], [ -2.9483725, 42.4904515 ], [ -2.9483389, 42.4905441 ], [ -2.9483046, 42.4906168 ], [ -2.9481784, 42.490885 ], [ -2.9480179, 42.4912258 ], [ -2.9479067, 42.4914837 ], [ -2.9479001, 42.4914991 ], [ -2.9478994, 42.4915005 ], [ -2.9476366, 42.49211 ], [ -2.947389, 42.492772 ], [ -2.9472553, 42.4931349 ], [ -2.9471414, 42.493444 ], [ -2.9469646, 42.4938729 ], [ -2.9469634, 42.4938758 ], [ -2.946939, 42.493935 ], [ -2.9469073, 42.494012 ], [ -2.9469016, 42.4940282 ], [ -2.946901, 42.4940301 ], [ -2.9469006, 42.494031 ], [ -2.9469, 42.4940328 ], [ -2.9468998, 42.4940333 ], [ -2.9468933, 42.4940521 ], [ -2.9468766, 42.4940997 ], [ -2.9468625, 42.4941402 ], [ -2.9468044, 42.4943066 ], [ -2.9468042, 42.4943072 ], [ -2.9467534, 42.4944523 ], [ -2.946751, 42.4944593 ], [ -2.9466935, 42.4944825 ], [ -2.944963, 42.494225 ], [ -2.9427273, 42.4938753 ], [ -2.9425553, 42.4938581 ], [ -2.9425687, 42.4938044 ], [ -2.9433274, 42.4911391 ], [ -2.943818, 42.4894947 ], [ -2.9438347, 42.4894536 ], [ -2.9438648, 42.4894246 ], [ -2.9441339, 42.4893845 ], [ -2.9442974, 42.4893592 ], [ -2.9446356, 42.4892867 ], [ -2.9446715, 42.4892799 ], [ -2.9451379, 42.4891611 ], [ -2.9458768, 42.4890491 ], [ -2.9466893, 42.4889258 ], [ -2.9477626, 42.4887802 ], [ -2.9478779, 42.488769 ] ] ] ] } },
{ "type": "Feature", "properties": { "paraje": "Finca La Emperatriz", "provincia": "La Rioja", "municipio": "Baños de Rioja", "poligono": "5", "parcela": "10", "recinto": "15", "uso_sigpac": "VI", "superficie": 145361.9258, "orden": "<a href=\"https://www.boe.es/boe/dias/2019/07/30/pdfs/BOE-A-2019-11186.pdf\" target=\"_blank\">APA/816/2019</a>", "expediente": "VS-068/2019", "boe": "BOE_181_30072019", "area": 145477.1798, "promotor": "Viñedos y Bodegas Hermanos Hernáiz S.L.U." }, "geometry": { "type": "MultiPolygon", "coordinates": [ [ [ [ -2.9411393, 42.4936683 ], [ -2.9417791, 42.4915193 ], [ -2.9416486, 42.4915017 ], [ -2.9422021, 42.4895677 ], [ -2.9433384, 42.4894718 ], [ -2.9433806, 42.48947 ], [ -2.9437298, 42.4894437 ], [ -2.9437402, 42.4894823 ], [ -2.9437401, 42.4895317 ], [ -2.9434402, 42.4905687 ], [ -2.9430867, 42.4917749 ], [ -2.9428205, 42.492747 ], [ -2.9425092, 42.4938237 ], [ -2.9424838, 42.4938466 ], [ -2.9424218, 42.4938466 ], [ -2.9411393, 42.4936683 ] ] ], [ [ [ -2.9400718, 42.4907807 ], [ -2.9393172, 42.4934495 ], [ -2.9382179, 42.4932916 ], [ -2.9382188, 42.493289 ], [ -2.938219, 42.4932886 ], [ -2.9383163, 42.4929434 ], [ -2.9383511, 42.4928201 ], [ -2.9383944, 42.4928253 ], [ -2.938396, 42.4928255 ], [ -2.9383971, 42.4928256 ], [ -2.9384143, 42.4928277 ], [ -2.9384982, 42.4928378 ], [ -2.9385243, 42.4927179 ], [ -2.9384577, 42.4927099 ], [ -2.9384572, 42.4927099 ], [ -2.9383773, 42.4927003 ], [ -2.9384783, 42.4923386 ], [ -2.9384961, 42.4922749 ], [ -2.9385167, 42.492201 ], [ -2.938517, 42.4922001 ], [ -2.9385193, 42.4921953 ], [ -2.938523, 42.492187 ], [ -2.9385268, 42.4921788 ], [ -2.9385306, 42.4921705 ], [ -2.9385345, 42.4921623 ], [ -2.9385384, 42.492154 ], [ -2.9385424, 42.4921458 ], [ -2.9385465, 42.4921376 ], [ -2.9385506, 42.4921294 ], [ -2.9385548, 42.4921212 ], [ -2.9385591, 42.4921131 ], [ -2.9385635, 42.4921049 ], [ -2.9385679, 42.4920967 ], [ -2.9385723, 42.4920886 ], [ -2.9385768, 42.4920804 ], [ -2.9385813, 42.4920723 ], [ -2.9385859, 42.4920641 ], [ -2.9385906, 42.492056 ], [ -2.9385952, 42.4920478 ], [ -2.9385999, 42.4920397 ], [ -2.9386046, 42.4920315 ], [ -2.9386094, 42.4920234 ], [ -2.9386141, 42.4920152 ], [ -2.9386189, 42.492007 ], [ -2.9386237, 42.4919989 ], [ -2.9386247, 42.4919971 ], [ -2.9386285, 42.4919907 ], [ -2.9386333, 42.4919825 ], [ -2.9386381, 42.4919743 ], [ -2.9386429, 42.4919661 ], [ -2.9386477, 42.4919579 ], [ -2.9386525, 42.4919497 ], [ -2.9386573, 42.4919414 ], [ -2.938662, 42.4919332 ], [ -2.9386668, 42.4919249 ], [ -2.9386716, 42.4919167 ], [ -2.9386764, 42.4919084 ], [ -2.9386812, 42.4919001 ], [ -2.9386828, 42.4918973 ], [ -2.9386859, 42.4918918 ], [ -2.9386868, 42.4918904 ], [ -2.9386915, 42.4918821 ], [ -2.9386963, 42.4918738 ], [ -2.9387011, 42.4918655 ], [ -2.9387038, 42.4918607 ], [ -2.938704, 42.4918603 ], [ -2.9387058, 42.4918572 ], [ -2.9387071, 42.4918548 ], [ -2.9387105, 42.4918489 ], [ -2.9387153, 42.4918406 ], [ -2.9387177, 42.4918363 ], [ -2.93872, 42.4918323 ], [ -2.9387247, 42.491824 ], [ -2.9387295, 42.4918157 ], [ -2.9387342, 42.4918074 ], [ -2.9387389, 42.4917991 ], [ -2.9387437, 42.4917908 ], [ -2.9387484, 42.4917825 ], [ -2.9387532, 42.4917743 ], [ -2.938758, 42.491766 ], [ -2.9387628, 42.4917578 ], [ -2.9387677, 42.4917495 ], [ -2.9387725, 42.4917413 ], [ -2.9387774, 42.491733 ], [ -2.9387797, 42.4917292 ], [ -2.9387823, 42.4917248 ], [ -2.9387871, 42.4917165 ], [ -2.938792, 42.4917082 ], [ -2.9387968, 42.4916999 ], [ -2.9388016, 42.4916916 ], [ -2.9388064, 42.4916833 ], [ -2.9388112, 42.491675 ], [ -2.9388159, 42.4916666 ], [ -2.9388205, 42.4916583 ], [ -2.9388251, 42.4916499 ], [ -2.9388296, 42.4916414 ], [ -2.9388341, 42.491633 ], [ -2.9388385, 42.4916245 ], [ -2.9388428, 42.491616 ], [ -2.938847, 42.4916075 ], [ -2.9388511, 42.4915989 ], [ -2.9388551, 42.4915903 ], [ -2.9388776, 42.4915409 ], [ -2.9388825, 42.4915345 ], [ -2.9388886, 42.4915267 ], [ -2.9388942, 42.4915195 ], [ -2.9388946, 42.491519 ], [ -2.9389006, 42.4915112 ], [ -2.9389065, 42.4915035 ], [ -2.9389125, 42.4914957 ], [ -2.9389184, 42.491488 ], [ -2.9389243, 42.4914803 ], [ -2.9389301, 42.4914726 ], [ -2.9389359, 42.4914648 ], [ -2.9389416, 42.4914571 ], [ -2.9389472, 42.4914495 ], [ -2.9389529, 42.4914419 ], [ -2.9389585, 42.4914343 ], [ -2.9389642, 42.4914267 ], [ -2.9389698, 42.4914191 ], [ -2.9389755, 42.4914116 ], [ -2.9389812, 42.4914042 ], [ -2.9389869, 42.4913967 ], [ -2.9389926, 42.4913893 ], [ -2.9389983, 42.491382 ], [ -2.9390041, 42.4913747 ], [ -2.9390099, 42.4913674 ], [ -2.9390158, 42.4913602 ], [ -2.9390217, 42.4913531 ], [ -2.9390277, 42.491346 ], [ -2.9390338, 42.491339 ], [ -2.9390399, 42.491332 ], [ -2.9390461, 42.4913252 ], [ -2.9390524, 42.4913183 ], [ -2.9390587, 42.4913116 ], [ -2.9390651, 42.4913048 ], [ -2.9390716, 42.4912982 ], [ -2.9390782, 42.4912916 ], [ -2.9390848, 42.4912851 ], [ -2.9390915, 42.4912787 ], [ -2.9390982, 42.4912723 ], [ -2.9391053, 42.4912659 ], [ -2.9391123, 42.4912595 ], [ -2.9391194, 42.4912533 ], [ -2.9391265, 42.4912473 ], [ -2.9391337, 42.4912412 ], [ -2.939141, 42.4912352 ], [ -2.9391484, 42.4912293 ], [ -2.9391558, 42.4912235 ], [ -2.9391634, 42.4912177 ], [ -2.939171, 42.491212 ], [ -2.9391788, 42.4912063 ], [ -2.9391866, 42.4912007 ], [ -2.9391945, 42.4911951 ], [ -2.9392025, 42.4911896 ], [ -2.9392106, 42.4911842 ], [ -2.9392134, 42.4911824 ], [ -2.9392216, 42.491177 ], [ -2.9392299, 42.4911718 ], [ -2.9392383, 42.4911667 ], [ -2.9392469, 42.4911615 ], [ -2.9392555, 42.4911565 ], [ -2.9392642, 42.4911514 ], [ -2.939273, 42.4911464 ], [ -2.9392819, 42.4911415 ], [ -2.9392909, 42.4911365 ], [ -2.9393, 42.4911316 ], [ -2.9393091, 42.4911267 ], [ -2.9393183, 42.4911219 ], [ -2.9393275, 42.491117 ], [ -2.9393368, 42.4911122 ], [ -2.9393462, 42.4911073 ], [ -2.9393556, 42.4911024 ], [ -2.9393597, 42.4911003 ], [ -2.939365, 42.4910975 ], [ -2.9393745, 42.4910926 ], [ -2.939384, 42.4910876 ], [ -2.9393935, 42.4910826 ], [ -2.939403, 42.4910775 ], [ -2.9394125, 42.4910724 ], [ -2.9394221, 42.4910673 ], [ -2.9394316, 42.4910621 ], [ -2.9394412, 42.4910569 ], [ -2.9394508, 42.4910518 ], [ -2.9394604, 42.4910466 ], [ -2.9394701, 42.4910415 ], [ -2.9394798, 42.4910363 ], [ -2.9394843, 42.491034 ], [ -2.9394873, 42.4910331 ], [ -2.9394986, 42.4910301 ], [ -2.9395099, 42.491027 ], [ -2.9395213, 42.491024 ], [ -2.9395326, 42.4910208 ], [ -2.9395439, 42.4910177 ], [ -2.9395553, 42.4910144 ], [ -2.9395666, 42.4910111 ], [ -2.9395779, 42.4910077 ], [ -2.9395806, 42.4910069 ], [ -2.9395892, 42.4910042 ], [ -2.9395957, 42.4910021 ], [ -2.9396179, 42.491031 ], [ -2.9396737, 42.4910128 ], [ -2.939728, 42.4909937 ], [ -2.9397507, 42.4909854 ], [ -2.9397288, 42.4909562 ], [ -2.9397356, 42.4909537 ], [ -2.9397389, 42.4909524 ], [ -2.9397468, 42.4909494 ], [ -2.9397581, 42.4909451 ], [ -2.9397694, 42.4909408 ], [ -2.9397807, 42.4909364 ], [ -2.939792, 42.490932 ], [ -2.9398033, 42.4909275 ], [ -2.9398146, 42.490923 ], [ -2.939826, 42.4909183 ], [ -2.9398373, 42.4909136 ], [ -2.9398487, 42.4909088 ], [ -2.93986, 42.4909039 ], [ -2.9398712, 42.4908989 ], [ -2.9398825, 42.4908938 ], [ -2.9398937, 42.4908885 ], [ -2.9399049, 42.4908832 ], [ -2.9399161, 42.4908777 ], [ -2.9399272, 42.4908722 ], [ -2.9399382, 42.4908665 ], [ -2.9399492, 42.4908607 ], [ -2.9399601, 42.4908547 ], [ -2.9399709, 42.4908486 ], [ -2.9399817, 42.4908424 ], [ -2.9399923, 42.490836 ], [ -2.9400029, 42.4908295 ], [ -2.9400133, 42.4908228 ], [ -2.9400237, 42.4908159 ], [ -2.9400339, 42.490809 ], [ -2.9400718, 42.4907807 ] ] ] ] } }
]
}
