{
"type": "FeatureCollection",
"name": "viñedos_singulares-canillas_de_rio_tuerto",
"crs": { "type": "name", "properties": { "name": "urn:ogc:def:crs:OGC:1.3:CRS84" } },
"xy_coordinate_resolution": 1e-07,
"features": [
{ "type": "Feature", "properties": { "paraje": "Uvas de Avispa Cerrolorca", "provincia": "La Rioja", "municipio": "Canillas de Río Tuerto", "poligono": "3", "parcela": "192", "recinto": "1", "uso_sigpac": "VI", "superficie": 1816.4446, "orden": "<a href=\"https://www.boe.es/boe/dias/2024/07/31/pdfs/BOE-A-2024-15839.pdf\" target=\"_blank\">APA/808/2024</a>", "expediente": "VS-178/2024", "boe": "BOE/184_31072024", "area": 1816.4446, "promotor": "Ricardo Peña S.L." }, "geometry": { "type": "MultiPolygon", "coordinates": [ [ [ [ -2.8352476, 42.3982486 ], [ -2.8350781, 42.3979962 ], [ -2.8349463, 42.3972846 ], [ -2.8355635, 42.3982311 ], [ -2.8352476, 42.3982486 ] ] ] ] } },
{ "type": "Feature", "properties": { "paraje": "Uvas de Avispa Cerrolorca", "provincia": "La Rioja", "municipio": "Canillas de Río Tuerto", "poligono": "3", "parcela": "193", "recinto": "2", "uso_sigpac": "VI", "superficie": 11592.9727, "orden": "<a href=\"https://www.boe.es/boe/dias/2024/07/31/pdfs/BOE-A-2024-15839.pdf\" target=\"_blank\">APA/808/2024</a>", "expediente": "VS-178/2024", "boe": "BOE/184_31072024", "area": 11602.1996, "promotor": "Ricardo Peña S.L." }, "geometry": { "type": "MultiPolygon", "coordinates": [ [ [ [ -2.833607, 42.3965164 ], [ -2.8339417, 42.3967094 ], [ -2.8346534, 42.3971095 ], [ -2.8346982, 42.3971346 ], [ -2.8349399, 42.3972705 ], [ -2.8349491, 42.3972912 ], [ -2.8349573, 42.3973094 ], [ -2.8350957, 42.3980059 ], [ -2.8351011, 42.3980161 ], [ -2.835063, 42.3980276 ], [ -2.835063, 42.3980311 ], [ -2.8350473, 42.3980365 ], [ -2.8350447, 42.3980374 ], [ -2.8350441, 42.3980376 ], [ -2.8350279, 42.3980431 ], [ -2.8350096, 42.3980494 ], [ -2.8349951, 42.3980544 ], [ -2.8349859, 42.3980575 ], [ -2.8349808, 42.3980592 ], [ -2.8349799, 42.3980595 ], [ -2.834967, 42.398064 ], [ -2.8349646, 42.3980648 ], [ -2.8349635, 42.3980652 ], [ -2.8349587, 42.3980591 ], [ -2.8349326, 42.3980669 ], [ -2.8350382, 42.3982563 ], [ -2.8350443, 42.398267 ], [ -2.8349933, 42.3982684 ], [ -2.834594, 42.3982951 ], [ -2.8341956, 42.3983058 ], [ -2.8341777, 42.3981898 ], [ -2.8341627, 42.3980425 ], [ -2.8343712, 42.3980236 ], [ -2.8343684, 42.3979898 ], [ -2.8343684, 42.3979894 ], [ -2.8343657, 42.3979575 ], [ -2.8343651, 42.3979496 ], [ -2.8343644, 42.3979411 ], [ -2.8343317, 42.3977538 ], [ -2.8343273, 42.3977281 ], [ -2.8342753, 42.3973994 ], [ -2.8337828, 42.3974404 ], [ -2.833723, 42.3971091 ], [ -2.8337228, 42.3971081 ], [ -2.8336873, 42.3969116 ], [ -2.8336452, 42.3966781 ], [ -2.8336291, 42.3966102 ], [ -2.8336206, 42.396574 ], [ -2.8336205, 42.3965736 ], [ -2.833607, 42.3965164 ] ] ] ] } },
{ "type": "Feature", "properties": { "paraje": "Uvas de Avispa Cerrolorca", "provincia": "La Rioja", "municipio": "Canillas de Río Tuerto", "poligono": "3", "parcela": "194", "recinto": "4", "uso_sigpac": "VI", "superficie": 1588.5941, "orden": "<a href=\"https://www.boe.es/boe/dias/2024/07/31/pdfs/BOE-A-2024-15839.pdf\" target=\"_blank\">APA/808/2024</a>", "expediente": "VS-178/2024", "boe": "BOE/184_31072024", "area": 1589.8584, "promotor": "Ricardo Peña S.L." }, "geometry": { "type": "MultiPolygon", "coordinates": [ [ [ [ -2.8343317, 42.3977538 ], [ -2.8338332, 42.3977829 ], [ -2.8338136, 42.3976248 ], [ -2.8338127, 42.3976198 ], [ -2.8338077, 42.3975897 ], [ -2.8338056, 42.3975773 ], [ -2.8338014, 42.397552 ], [ -2.8337927, 42.3974997 ], [ -2.8337828, 42.3974404 ], [ -2.8342753, 42.3973994 ], [ -2.8343273, 42.3977281 ], [ -2.8343317, 42.3977538 ] ] ] ] } }
]
}
