{
"type": "FeatureCollection",
"name": "viñedos_singulares-cenicero",
"crs": { "type": "name", "properties": { "name": "urn:ogc:def:crs:OGC:1.3:CRS84" } },
"xy_coordinate_resolution": 1e-07,
"features": [
{ "type": "Feature", "properties": { "paraje": "Cuartos Viejos", "provincia": "La Rioja", "municipio": "Cenicero", "poligono": "24", "parcela": "77", "recinto": "1", "uso_sigpac": "VI", "superficie": 58461.4204, "orden": "<a href=\"https://www.boe.es/boe/dias/2021/05/14/pdfs/BOE-A-2021-8011.pdf\" target=\"_blank\">APA/468/2021</a>", "expediente": "VS-126/2021", "boe": "BOE_115_14052021", "area": 58507.2184, "promotor": "El Coto de Rioja S.A." }, "geometry": { "type": "MultiPolygon", "coordinates": [ [ [ [ -2.6733503, 42.4896701 ], [ -2.6734424, 42.4896889 ], [ -2.6735024, 42.4897024 ], [ -2.6735875, 42.4897254 ], [ -2.6736436, 42.489725 ], [ -2.6737338, 42.4897053 ], [ -2.6738099, 42.48968 ], [ -2.6739879, 42.4896838 ], [ -2.6741664, 42.4897287 ], [ -2.6742498, 42.489744 ], [ -2.6745689, 42.4898711 ], [ -2.6760544, 42.4904791 ], [ -2.6763768, 42.4906111 ], [ -2.6764473, 42.49064 ], [ -2.6764747, 42.4906512 ], [ -2.6764707, 42.4906587 ], [ -2.6764704, 42.4906593 ], [ -2.6764595, 42.4906798 ], [ -2.6760927, 42.4912951 ], [ -2.6760752, 42.4913244 ], [ -2.676025, 42.4914172 ], [ -2.6760235, 42.4914167 ], [ -2.6758809, 42.4913594 ], [ -2.6758177, 42.491443 ], [ -2.6759737, 42.4915056 ], [ -2.6759767, 42.4915067 ], [ -2.6758963, 42.4916553 ], [ -2.6757666, 42.4918965 ], [ -2.6756874, 42.4920201 ], [ -2.6756336, 42.4921042 ], [ -2.6755276, 42.4922511 ], [ -2.6754448, 42.492366 ], [ -2.6754342, 42.4923616 ], [ -2.6753522, 42.4923276 ], [ -2.6753517, 42.4923273 ], [ -2.6751757, 42.4922542 ], [ -2.6741018, 42.4918082 ], [ -2.673271, 42.4914631 ], [ -2.6732038, 42.491437 ], [ -2.6730611, 42.4913815 ], [ -2.6727119, 42.4912458 ], [ -2.6727023, 42.491242 ], [ -2.672689, 42.4912369 ], [ -2.6726655, 42.4911427 ], [ -2.6726211, 42.4910148 ], [ -2.6725778, 42.4909503 ], [ -2.6725318, 42.490848 ], [ -2.6725049, 42.4907887 ], [ -2.6724902, 42.490749 ], [ -2.6724951, 42.4906868 ], [ -2.6725461, 42.4906213 ], [ -2.6725397, 42.4905959 ], [ -2.6725564, 42.4905674 ], [ -2.6727005, 42.4904402 ], [ -2.6726976, 42.4904385 ], [ -2.6727166, 42.4904233 ], [ -2.6728711, 42.4902911 ], [ -2.672974, 42.4902118 ], [ -2.6730153, 42.490155 ], [ -2.6730323, 42.4901198 ], [ -2.6730464, 42.4900907 ], [ -2.673053, 42.4900576 ], [ -2.6730569, 42.4900376 ], [ -2.6730472, 42.4899428 ], [ -2.6730527, 42.4898632 ], [ -2.6730805, 42.4897825 ], [ -2.6730816, 42.4897792 ], [ -2.673087, 42.4897634 ], [ -2.673088, 42.4897639 ], [ -2.6730892, 42.4897639 ], [ -2.6730909, 42.4897604 ], [ -2.6731441, 42.4897106 ], [ -2.6732134, 42.4896929 ], [ -2.6733038, 42.4896746 ], [ -2.6733503, 42.4896701 ] ] ] ] } },
{ "type": "Feature", "properties": { "paraje": "Fundación Maga", "provincia": "La Rioja", "municipio": "Cenicero", "poligono": "3", "parcela": "169", "recinto": "1", "uso_sigpac": "VI", "superficie": 27407.2314, "orden": "<a href=\"https://www.boe.es/boe/dias/2022/08/15/pdfs/BOE-A-2022-13770.pdf\" target=\"_blank\">APA/794/2022</a>", "expediente": "VS-149/2022", "boe": "BOE_195_15082022", "area": 27428.3621, "promotor": "Bodegas Ollauri S.L." }, "geometry": { "type": "MultiPolygon", "coordinates": [ [ [ [ -2.6123565, 42.4927725 ], [ -2.612367, 42.4927898 ], [ -2.61238, 42.4928114 ], [ -2.6127857, 42.4934838 ], [ -2.6132107, 42.4941637 ], [ -2.6131631, 42.4941417 ], [ -2.612976, 42.4942221 ], [ -2.6129359, 42.4942342 ], [ -2.6126818, 42.4943107 ], [ -2.6125334, 42.4943594 ], [ -2.6124497, 42.4943868 ], [ -2.6123257, 42.4944089 ], [ -2.6122004, 42.4944312 ], [ -2.6121986, 42.4944314 ], [ -2.6121765, 42.4944343 ], [ -2.6121672, 42.4944355 ], [ -2.612141, 42.4944389 ], [ -2.6121396, 42.494439 ], [ -2.612139, 42.4944391 ], [ -2.6121375, 42.4944393 ], [ -2.6121331, 42.4944399 ], [ -2.6121218, 42.4944413 ], [ -2.6121197, 42.4944416 ], [ -2.61192, 42.4944674 ], [ -2.6117613, 42.4944738 ], [ -2.6114433, 42.494462 ], [ -2.6113572, 42.4944771 ], [ -2.6109616, 42.4945462 ], [ -2.6106586, 42.494621 ], [ -2.6105996, 42.4946527 ], [ -2.6103148, 42.4948055 ], [ -2.609954, 42.4949946 ], [ -2.6099498, 42.4949912 ], [ -2.6099437, 42.4949862 ], [ -2.609911, 42.4949595 ], [ -2.6099088, 42.494929 ], [ -2.6099285, 42.4948878 ], [ -2.6099302, 42.4948853 ], [ -2.6099762, 42.4948157 ], [ -2.610041, 42.4947178 ], [ -2.6102348, 42.4943741 ], [ -2.6102469, 42.4943557 ], [ -2.6103231, 42.4942392 ], [ -2.6104203, 42.4941584 ], [ -2.6107193, 42.4939099 ], [ -2.6111082, 42.493638 ], [ -2.6114323, 42.4934114 ], [ -2.611615, 42.4932401 ], [ -2.6117414, 42.4930955 ], [ -2.6119822, 42.4929316 ], [ -2.6120199, 42.4929059 ], [ -2.6121003, 42.492874 ], [ -2.6121391, 42.4928587 ], [ -2.612196, 42.4928361 ], [ -2.6123565, 42.4927725 ] ] ] ] } },
{ "type": "Feature", "properties": { "paraje": "El Cejón", "provincia": "La Rioja", "municipio": "Cenicero", "poligono": "26", "parcela": "163", "recinto": "1", "uso_sigpac": "VI", "superficie": 29752.7567, "orden": "<a href=\"https://www.boe.es/boe/dias/2023/07/26/pdfs/BOE-A-2023-17245.pdf\" target=\"_blank\">APA/873/2023</a>", "expediente": "VS-166/2023", "boe": "BOE/177_26072023", "area": 29776.7423, "promotor": "Barón de Ley S.A." }, "geometry": { "type": "MultiPolygon", "coordinates": [ [ [ [ -2.6692241, 42.4840599 ], [ -2.6697316, 42.484352 ], [ -2.670647, 42.4848143 ], [ -2.671342, 42.4851492 ], [ -2.6719169, 42.4854025 ], [ -2.6732107, 42.4859382 ], [ -2.6732106, 42.4859658 ], [ -2.6731834, 42.4860277 ], [ -2.6731563, 42.4860849 ], [ -2.6731022, 42.4861518 ], [ -2.6729704, 42.4863252 ], [ -2.6728018, 42.4865379 ], [ -2.6728014, 42.4865384 ], [ -2.6727979, 42.4865434 ], [ -2.6721955, 42.4862632 ], [ -2.6704846, 42.4854912 ], [ -2.669364, 42.4849518 ], [ -2.6686057, 42.4845767 ], [ -2.6682859, 42.4844129 ], [ -2.6685123, 42.4843345 ], [ -2.668968, 42.4841725 ], [ -2.6691699, 42.4840862 ], [ -2.6692241, 42.4840599 ] ] ] ] } },
{ "type": "Feature", "properties": { "paraje": "Los Paletones de Monte Real", "provincia": "La Rioja", "municipio": "Cenicero", "poligono": "29", "parcela": "49", "recinto": "1", "uso_sigpac": "VI", "superficie": 14019.9825, "orden": "<a href=\"https://www.boe.es/boe/dias/2024/07/31/pdfs/BOE-A-2024-15839.pdf\" target=\"_blank\">APA/808/2024</a>", "expediente": "VS-187/2024", "boe": "BOE/184_31072024", "area": 14019.9826, "promotor": "Bodegas Riojanas S.A." }, "geometry": { "type": "MultiPolygon", "coordinates": [ [ [ [ -2.6859013, 42.4958404 ], [ -2.6852895, 42.4965052 ], [ -2.6837615, 42.4954293 ], [ -2.6837252, 42.4953842 ], [ -2.6838475, 42.4952584 ], [ -2.684079, 42.495205 ], [ -2.684347, 42.4951607 ], [ -2.6845544, 42.4950532 ], [ -2.6847249, 42.4950177 ], [ -2.6859013, 42.4958404 ] ] ] ] } },
{ "type": "Feature", "properties": { "paraje": "Los Paletones de Monte Real", "provincia": "La Rioja", "municipio": "Cenicero", "poligono": "29", "parcela": "50", "recinto": "1", "uso_sigpac": "VI", "superficie": 12710.3356, "orden": "<a href=\"https://www.boe.es/boe/dias/2024/07/31/pdfs/BOE-A-2024-15839.pdf\" target=\"_blank\">APA/808/2024</a>", "expediente": "VS-187/2024", "boe": "BOE/184_31072024", "area": 12720.2987, "promotor": "Bodegas Riojanas S.A." }, "geometry": { "type": "MultiPolygon", "coordinates": [ [ [ [ -2.6829085, 42.4948919 ], [ -2.6836931, 42.4954317 ], [ -2.6841251, 42.4957511 ], [ -2.6852597, 42.4965302 ], [ -2.6852299, 42.4965683 ], [ -2.6851063, 42.4967122 ], [ -2.6849127, 42.4968538 ], [ -2.6848978, 42.4968646 ], [ -2.6848684, 42.4968825 ], [ -2.6844736, 42.4966024 ], [ -2.6838746, 42.4961792 ], [ -2.6835092, 42.4958961 ], [ -2.6831638, 42.4956363 ], [ -2.6825832, 42.4951826 ], [ -2.6827606, 42.4950097 ], [ -2.682907, 42.4948931 ], [ -2.6829085, 42.4948919 ] ] ] ] } },
{ "type": "Feature", "properties": { "paraje": "Los Paletones de Monte Real", "provincia": "La Rioja", "municipio": "Cenicero", "poligono": "29", "parcela": "51", "recinto": "1", "uso_sigpac": "VI", "superficie": 3922.3119, "orden": "<a href=\"https://www.boe.es/boe/dias/2024/07/31/pdfs/BOE-A-2024-15839.pdf\" target=\"_blank\">APA/808/2024</a>", "expediente": "VS-187/2024", "boe": "BOE/184_31072024", "area": 3922.3118, "promotor": "Bodegas Riojanas S.A." }, "geometry": { "type": "MultiPolygon", "coordinates": [ [ [ [ -2.682501, 42.4952899 ], [ -2.6825832, 42.4951826 ], [ -2.6831638, 42.4956363 ], [ -2.6835092, 42.4958961 ], [ -2.6838746, 42.4961792 ], [ -2.6844736, 42.4966024 ], [ -2.6848684, 42.4968825 ], [ -2.6846781, 42.4969804 ], [ -2.684321, 42.4966939 ], [ -2.6838029, 42.4963129 ], [ -2.6831266, 42.4957884 ], [ -2.6827436, 42.4954951 ], [ -2.6827467, 42.495493 ], [ -2.6827221, 42.4954742 ], [ -2.6827272, 42.4954628 ], [ -2.6826984, 42.4954371 ], [ -2.682501, 42.4952899 ] ] ] ] } },
{ "type": "Feature", "properties": { "paraje": "El Plantizo de Monte Real", "provincia": "La Rioja", "municipio": "Cenicero", "poligono": "26", "parcela": "116", "recinto": "3", "uso_sigpac": "VI", "superficie": 13237.0581, "orden": "<a href=\"https://www.boe.es/boe/dias/2024/07/31/pdfs/BOE-A-2024-15839.pdf\" target=\"_blank\">APA/808/2024</a>", "expediente": "VS-188/2024", "boe": "BOE/184_31072024", "area": 13247.4115, "promotor": "Bodegas Riojanas S.A." }, "geometry": { "type": "MultiPolygon", "coordinates": [ [ [ [ -2.6682633, 42.4899162 ], [ -2.6683307, 42.4899215 ], [ -2.668392, 42.489933 ], [ -2.6684015, 42.4899422 ], [ -2.6684005, 42.4899581 ], [ -2.6683499, 42.4908203 ], [ -2.6683075, 42.4925927 ], [ -2.6683073, 42.4926009 ], [ -2.6680371, 42.492593 ], [ -2.6676988, 42.4925866 ], [ -2.6676992, 42.4925815 ], [ -2.6678346, 42.4907164 ], [ -2.6678389, 42.4906563 ], [ -2.6678393, 42.4906515 ], [ -2.6678425, 42.490608 ], [ -2.6678528, 42.4904722 ], [ -2.6678447, 42.4901826 ], [ -2.6678273, 42.4901003 ], [ -2.6678269, 42.4900986 ], [ -2.6679041, 42.4900578 ], [ -2.6680269, 42.4900056 ], [ -2.6682131, 42.4899315 ], [ -2.6682633, 42.4899162 ] ] ] ] } },
{ "type": "Feature", "properties": { "paraje": "El Plantizo de Monte Real", "provincia": "La Rioja", "municipio": "Cenicero", "poligono": "26", "parcela": "116", "recinto": "4", "uso_sigpac": "VI", "superficie": 4476.9883, "orden": "<a href=\"https://www.boe.es/boe/dias/2024/07/31/pdfs/BOE-A-2024-15839.pdf\" target=\"_blank\">APA/808/2024</a>", "expediente": "VS-188/2024", "boe": "BOE/184_31072024", "area": 4480.4899, "promotor": "Bodegas Riojanas S.A." }, "geometry": { "type": "MultiPolygon", "coordinates": [ [ [ [ -2.6684312, 42.4892778 ], [ -2.6684245, 42.489571 ], [ -2.6684086, 42.4898278 ], [ -2.6683461, 42.4898615 ], [ -2.6682444, 42.4898909 ], [ -2.6680937, 42.4899377 ], [ -2.6679162, 42.4900108 ], [ -2.6678169, 42.4900467 ], [ -2.6678076, 42.489978 ], [ -2.6677992, 42.4899119 ], [ -2.667785, 42.4895998 ], [ -2.6678058, 42.4893282 ], [ -2.6678052, 42.4893221 ], [ -2.6678073, 42.4891254 ], [ -2.667822, 42.4891044 ], [ -2.6678632, 42.4891063 ], [ -2.6679189, 42.4891142 ], [ -2.6683002, 42.4891824 ], [ -2.6683941, 42.489208 ], [ -2.6684246, 42.4892778 ], [ -2.6684312, 42.4892778 ] ] ] ] } },
{ "type": "Feature", "properties": { "paraje": "El Plantizo de Monte Real", "provincia": "La Rioja", "municipio": "Cenicero", "poligono": "29", "parcela": "124", "recinto": "1", "uso_sigpac": "VI", "superficie": 3014.8288, "orden": "<a href=\"https://www.boe.es/boe/dias/2024/07/31/pdfs/BOE-A-2024-15839.pdf\" target=\"_blank\">APA/808/2024</a>", "expediente": "VS-188/2024", "boe": "BOE/184_31072024", "area": 3017.1868, "promotor": "Bodegas Riojanas S.A." }, "geometry": { "type": "MultiPolygon", "coordinates": [ [ [ [ -2.6676585, 42.4926323 ], [ -2.668035, 42.4926393 ], [ -2.6682939, 42.4926469 ], [ -2.6683256, 42.4926478 ], [ -2.6681507, 42.4933137 ], [ -2.6681499, 42.4933166 ], [ -2.6676329, 42.4930255 ], [ -2.6676585, 42.4926323 ] ] ] ] } }
]
}
