{
"type": "FeatureCollection",
"name": "viñedos_singulares-autol",
"crs": { "type": "name", "properties": { "name": "urn:ogc:def:crs:OGC:1.3:CRS84" } },
"xy_coordinate_resolution": 1e-07,
"features": [
{ "type": "Feature", "properties": { "paraje": "Gallarón", "provincia": "La Rioja", "municipio": "Autol", "poligono": "11", "parcela": "399", "recinto": "2", "uso_sigpac": "VI", "superficie": 407.2495, "orden": "<a href=\"https://www.boe.es/boe/dias/2024/07/31/pdfs/BOE-A-2024-15839.pdf\" target=\"_blank\">APA/808/2024</a>", "expediente": "VS-183/2024", "boe": "BOE/184_31072024", "area": 407.2495, "promotor": "Viñedos Real Rubio S.L." }, "geometry": { "type": "MultiPolygon", "coordinates": [ [ [ [ -1.9435028, 42.1734984 ], [ -1.9437478, 42.1733295 ], [ -1.9439533, 42.1733494 ], [ -1.9437445, 42.1735276 ], [ -1.9435028, 42.1734984 ] ] ] ] } },
{ "type": "Feature", "properties": { "paraje": "Gallarón", "provincia": "La Rioja", "municipio": "Autol", "poligono": "11", "parcela": "420", "recinto": "37", "uso_sigpac": "VI", "superficie": 2415.977, "orden": "<a href=\"https://www.boe.es/boe/dias/2024/07/31/pdfs/BOE-A-2024-15839.pdf\" target=\"_blank\">APA/808/2024</a>", "expediente": "VS-183/2024", "boe": "BOE/184_31072024", "area": 2415.977, "promotor": "Viñedos Real Rubio S.L." }, "geometry": { "type": "MultiPolygon", "coordinates": [ [ [ [ -1.9399614, 42.1731325 ], [ -1.9394418, 42.1730736 ], [ -1.9395417, 42.1728944 ], [ -1.9412339, 42.1730632 ], [ -1.9411958, 42.1731709 ], [ -1.9412669, 42.1732616 ], [ -1.9409889, 42.173232 ], [ -1.941088, 42.1730979 ], [ -1.9410037, 42.1730701 ], [ -1.9407253, 42.1730675 ], [ -1.9406391, 42.1731568 ], [ -1.9405537, 42.173192 ], [ -1.9402999, 42.1731626 ], [ -1.9401801, 42.1730895 ], [ -1.940035, 42.1730791 ], [ -1.9399614, 42.1731325 ] ] ] ] } },
{ "type": "Feature", "properties": { "paraje": "Gallarón", "provincia": "La Rioja", "municipio": "Autol", "poligono": "11", "parcela": "446", "recinto": "4", "uso_sigpac": "VI", "superficie": 1166.2135, "orden": "<a href=\"https://www.boe.es/boe/dias/2024/07/31/pdfs/BOE-A-2024-15839.pdf\" target=\"_blank\">APA/808/2024</a>", "expediente": "VS-183/2024", "boe": "BOE/184_31072024", "area": 1166.2135, "promotor": "Viñedos Real Rubio S.L." }, "geometry": { "type": "MultiPolygon", "coordinates": [ [ [ [ -1.9412669, 42.1732616 ], [ -1.9411958, 42.1731709 ], [ -1.9412339, 42.1730632 ], [ -1.9418865, 42.1731322 ], [ -1.9418348, 42.1733299 ], [ -1.9412669, 42.1732616 ] ] ] ] } },
{ "type": "Feature", "properties": { "paraje": "Gallarón", "provincia": "La Rioja", "municipio": "Autol", "poligono": "11", "parcela": "471", "recinto": "2", "uso_sigpac": "VI", "superficie": 1389.3506, "orden": "<a href=\"https://www.boe.es/boe/dias/2024/07/31/pdfs/BOE-A-2024-15839.pdf\" target=\"_blank\">APA/808/2024</a>", "expediente": "VS-183/2024", "boe": "BOE/184_31072024", "area": 1389.3506, "promotor": "Viñedos Real Rubio S.L." }, "geometry": { "type": "MultiPolygon", "coordinates": [ [ [ [ -1.9425484, 42.1733725 ], [ -1.9418865, 42.1731322 ], [ -1.9429744, 42.1732413 ], [ -1.9431305, 42.1733148 ], [ -1.9429469, 42.1734392 ], [ -1.9425484, 42.1733725 ] ] ] ] } },
{ "type": "Feature", "properties": { "paraje": "Gallarón", "provincia": "La Rioja", "municipio": "Autol", "poligono": "11", "parcela": "473", "recinto": "3", "uso_sigpac": "VI", "superficie": 1004.6156, "orden": "<a href=\"https://www.boe.es/boe/dias/2024/07/31/pdfs/BOE-A-2024-15839.pdf\" target=\"_blank\">APA/808/2024</a>", "expediente": "VS-183/2024", "boe": "BOE/184_31072024", "area": 1004.6156, "promotor": "Viñedos Real Rubio S.L." }, "geometry": { "type": "MultiPolygon", "coordinates": [ [ [ [ -1.9439533, 42.1733494 ], [ -1.9444732, 42.1733902 ], [ -1.9442883, 42.1735867 ], [ -1.9437445, 42.1735276 ], [ -1.9439533, 42.1733494 ] ] ] ] } },
{ "type": "Feature", "properties": { "paraje": "Gallarón", "provincia": "La Rioja", "municipio": "Autol", "poligono": "11", "parcela": "487", "recinto": "1", "uso_sigpac": "VI", "superficie": 1062.6513, "orden": "<a href=\"https://www.boe.es/boe/dias/2024/07/31/pdfs/BOE-A-2024-15839.pdf\" target=\"_blank\">APA/808/2024</a>", "expediente": "VS-183/2024", "boe": "BOE/184_31072024", "area": 1062.6514, "promotor": "Viñedos Real Rubio S.L." }, "geometry": { "type": "MultiPolygon", "coordinates": [ [ [ [ -1.9442883, 42.1735867 ], [ -1.9444732, 42.1733902 ], [ -1.9449808, 42.1734489 ], [ -1.9448685, 42.1736461 ], [ -1.9442883, 42.1735867 ] ] ] ] } },
{ "type": "Feature", "properties": { "paraje": "Gallarón", "provincia": "La Rioja", "municipio": "Autol", "poligono": "11", "parcela": "750", "recinto": "2", "uso_sigpac": "VI", "superficie": 657.4023, "orden": "<a href=\"https://www.boe.es/boe/dias/2024/07/31/pdfs/BOE-A-2024-15839.pdf\" target=\"_blank\">APA/808/2024</a>", "expediente": "VS-183/2024", "boe": "BOE/184_31072024", "area": 657.4023, "promotor": "Viñedos Real Rubio S.L." }, "geometry": { "type": "MultiPolygon", "coordinates": [ [ [ [ -1.9418865, 42.1731322 ], [ -1.9425484, 42.1733725 ], [ -1.9418348, 42.1733299 ], [ -1.9418865, 42.1731322 ] ] ] ] } },
{ "type": "Feature", "properties": { "paraje": "Gallarón", "provincia": "La Rioja", "municipio": "Autol", "poligono": "11", "parcela": "751", "recinto": "1", "uso_sigpac": "TA", "superficie": 63.0386, "orden": "<a href=\"https://www.boe.es/boe/dias/2024/07/31/pdfs/BOE-A-2024-15839.pdf\" target=\"_blank\">APA/808/2024</a>", "expediente": "VS-183/2024", "boe": "BOE/184_31072024", "area": 63.0386, "promotor": "Viñedos Real Rubio S.L." }, "geometry": { "type": "MultiPolygon", "coordinates": [ [ [ [ -1.9431305, 42.1733148 ], [ -1.9429744, 42.1732413 ], [ -1.9432041, 42.1732615 ], [ -1.9431305, 42.1733148 ] ] ] ] } },
{ "type": "Feature", "properties": { "paraje": "Gallarón", "provincia": "La Rioja", "municipio": "Autol", "poligono": "11", "parcela": "752", "recinto": "3", "uso_sigpac": "VI", "superficie": 1018.1236, "orden": "<a href=\"https://www.boe.es/boe/dias/2024/07/31/pdfs/BOE-A-2024-15839.pdf\" target=\"_blank\">APA/808/2024</a>", "expediente": "VS-183/2024", "boe": "BOE/184_31072024", "area": 1018.1236, "promotor": "Viñedos Real Rubio S.L." }, "geometry": { "type": "MultiPolygon", "coordinates": [ [ [ [ -1.9432041, 42.1732615 ], [ -1.9437478, 42.1733295 ], [ -1.9435028, 42.1734984 ], [ -1.9429469, 42.1734392 ], [ -1.9431305, 42.1733148 ], [ -1.9432041, 42.1732615 ] ] ] ] } },
{ "type": "Feature", "properties": { "paraje": "Gallarón", "provincia": "La Rioja", "municipio": "Autol", "poligono": "11", "parcela": "763", "recinto": "2", "uso_sigpac": "VI", "superficie": 530.8247, "orden": "<a href=\"https://www.boe.es/boe/dias/2024/07/31/pdfs/BOE-A-2024-15839.pdf\" target=\"_blank\">APA/808/2024</a>", "expediente": "VS-183/2024", "boe": "BOE/184_31072024", "area": 530.8247, "promotor": "Viñedos Real Rubio S.L." }, "geometry": { "type": "MultiPolygon", "coordinates": [ [ [ [ -1.941088, 42.1730979 ], [ -1.9409889, 42.173232 ], [ -1.9405537, 42.173192 ], [ -1.9406391, 42.1731568 ], [ -1.9407253, 42.1730675 ], [ -1.9410037, 42.1730701 ], [ -1.941088, 42.1730979 ] ] ] ] } },
{ "type": "Feature", "properties": { "paraje": "Gallarón", "provincia": "La Rioja", "municipio": "Autol", "poligono": "11", "parcela": "763", "recinto": "3", "uso_sigpac": "VI", "superficie": 136.0832, "orden": "<a href=\"https://www.boe.es/boe/dias/2024/07/31/pdfs/BOE-A-2024-15839.pdf\" target=\"_blank\">APA/808/2024</a>", "expediente": "VS-183/2024", "boe": "BOE/184_31072024", "area": 136.0832, "promotor": "Viñedos Real Rubio S.L." }, "geometry": { "type": "MultiPolygon", "coordinates": [ [ [ [ -1.9399614, 42.1731325 ], [ -1.940035, 42.1730791 ], [ -1.9401801, 42.1730895 ], [ -1.9402999, 42.1731626 ], [ -1.9399614, 42.1731325 ] ] ] ] } }
]
}
