{
"type": "FeatureCollection",
"name": "viñedos_singulares-baños_de_ebro-mañueta",
"crs": { "type": "name", "properties": { "name": "urn:ogc:def:crs:OGC:1.3:CRS84" } },
"xy_coordinate_resolution": 1e-07,
"features": [
{ "type": "Feature", "properties": { "paraje": "Las Laderas de José Luis", "provincia": "Araba/Álava", "municipio": "Baños de Ebro/Mañueta", "poligono": "1", "parcela": "396", "recinto": "2", "uso_sigpac": "VI", "superficie": 253.8761, "orden": "<a href=\"https://www.boe.es/boe/dias/2019/07/30/pdfs/BOE-A-2019-11186.pdf\" target=\"_blank\">APA/816/2019</a>", "expediente": "VS-038/2019", "boe": "BOE_181_30072019", "area": 254.0768, "promotor": "Dominio de Berzal S.L." }, "geometry": { "type": "MultiPolygon", "coordinates": [ [ [ [ -2.700695, 42.5236621 ], [ -2.7006804, 42.5236363 ], [ -2.7007477, 42.523646 ], [ -2.7008355, 42.5236624 ], [ -2.7009075, 42.5240299 ], [ -2.7008243, 42.5238851 ], [ -2.7007577, 42.5237729 ], [ -2.7006976, 42.5236669 ], [ -2.700695, 42.5236621 ] ] ] ] } },
{ "type": "Feature", "properties": { "paraje": "Las Laderas de José Luis", "provincia": "Araba/Álava", "municipio": "Baños de Ebro/Mañueta", "poligono": "1", "parcela": "398", "recinto": "1", "uso_sigpac": "VI", "superficie": 4871.9971, "orden": "<a href=\"https://www.boe.es/boe/dias/2019/07/30/pdfs/BOE-A-2019-11186.pdf\" target=\"_blank\">APA/816/2019</a>", "expediente": "VS-038/2019", "boe": "BOE_181_30072019", "area": 4875.8968, "promotor": "Dominio de Berzal S.L." }, "geometry": { "type": "MultiPolygon", "coordinates": [ [ [ [ -2.7006791, 42.5247912 ], [ -2.7006527, 42.5247162 ], [ -2.7006002, 42.5245387 ], [ -2.7005653, 42.5243915 ], [ -2.7005474, 42.5242766 ], [ -2.7005258, 42.5242181 ], [ -2.7005211, 42.5241806 ], [ -2.7004665, 42.52418 ], [ -2.7004202, 42.5241756 ], [ -2.7003607, 42.524171 ], [ -2.7003162, 42.5241786 ], [ -2.7002749, 42.5241879 ], [ -2.7002473, 42.5240988 ], [ -2.7002259, 42.5239957 ], [ -2.7002051, 42.5239051 ], [ -2.7001788, 42.5238101 ], [ -2.7001575, 42.5237263 ], [ -2.7001481, 42.523688 ], [ -2.7001475, 42.5236859 ], [ -2.7005337, 42.5236604 ], [ -2.700695, 42.5236621 ], [ -2.7006976, 42.5236669 ], [ -2.7007577, 42.5237729 ], [ -2.7008243, 42.5238851 ], [ -2.7009075, 42.5240299 ], [ -2.7009519, 42.5241286 ], [ -2.7009667, 42.5241844 ], [ -2.7009742, 42.5242632 ], [ -2.7009753, 42.5242933 ], [ -2.700976, 42.5243171 ], [ -2.7009772, 42.5243494 ], [ -2.7009778, 42.5243653 ], [ -2.7009696, 42.5244165 ], [ -2.7009614, 42.5244676 ], [ -2.7009466, 42.5245345 ], [ -2.7009367, 42.5245799 ], [ -2.700924, 42.524614 ], [ -2.7009023, 42.5246726 ], [ -2.7008571, 42.5247663 ], [ -2.7008495, 42.5247659 ], [ -2.7007839, 42.5247718 ], [ -2.7006931, 42.5247884 ], [ -2.7006791, 42.5247912 ] ] ] ] } },
{ "type": "Feature", "properties": { "paraje": "Las Laderas de José Luis", "provincia": "Araba/Álava", "municipio": "Baños de Ebro/Mañueta", "poligono": "1", "parcela": "399", "recinto": "1", "uso_sigpac": "VI", "superficie": 2916.3817, "orden": "<a href=\"https://www.boe.es/boe/dias/2019/07/30/pdfs/BOE-A-2019-11186.pdf\" target=\"_blank\">APA/816/2019</a>", "expediente": "VS-038/2019", "boe": "BOE_181_30072019", "area": 2918.6863, "promotor": "Dominio de Berzal S.L." }, "geometry": { "type": "MultiPolygon", "coordinates": [ [ [ [ -2.7003651, 42.5248929 ], [ -2.7003588, 42.5248947 ], [ -2.7003352, 42.5248935 ], [ -2.7003054, 42.524879 ], [ -2.700281, 42.5248503 ], [ -2.7002501, 42.5248051 ], [ -2.7001947, 42.5247029 ], [ -2.7001302, 42.5245722 ], [ -2.7000744, 42.5244905 ], [ -2.7000295, 42.5244 ], [ -2.6999847, 42.5243182 ], [ -2.6999658, 42.5242839 ], [ -2.699955, 42.5242645 ], [ -2.7000138, 42.5242549 ], [ -2.7000872, 42.5242407 ], [ -2.7001577, 42.5242256 ], [ -2.7002132, 42.5242085 ], [ -2.7002609, 42.5241926 ], [ -2.7002749, 42.5241879 ], [ -2.7003162, 42.5241786 ], [ -2.7003607, 42.524171 ], [ -2.7004202, 42.5241756 ], [ -2.7004665, 42.52418 ], [ -2.7005211, 42.5241806 ], [ -2.7005258, 42.5242181 ], [ -2.7005474, 42.5242766 ], [ -2.7005653, 42.5243915 ], [ -2.7006002, 42.5245387 ], [ -2.7006527, 42.5247162 ], [ -2.7006791, 42.5247912 ], [ -2.7006072, 42.5248058 ], [ -2.7005252, 42.5248269 ], [ -2.7004629, 42.5248506 ], [ -2.7004181, 42.5248703 ], [ -2.7004069, 42.5248752 ], [ -2.7003792, 42.5248887 ], [ -2.7003651, 42.5248929 ] ] ] ] } },
{ "type": "Feature", "properties": { "paraje": "Las Laderas de José Luis", "provincia": "Araba/Álava", "municipio": "Baños de Ebro/Mañueta", "poligono": "1", "parcela": "400", "recinto": "1", "uso_sigpac": "VI", "superficie": 355.68, "orden": "<a href=\"https://www.boe.es/boe/dias/2019/07/30/pdfs/BOE-A-2019-11186.pdf\" target=\"_blank\">APA/816/2019</a>", "expediente": "VS-038/2019", "boe": "BOE_181_30072019", "area": 355.9522, "promotor": "Dominio de Berzal S.L." }, "geometry": { "type": "MultiPolygon", "coordinates": [ [ [ [ -2.7002779, 42.5249611 ], [ -2.7002662, 42.5249377 ], [ -2.7002481, 42.5249013 ], [ -2.7001262, 42.5246675 ], [ -2.7000451, 42.5245327 ], [ -2.6999782, 42.5244127 ], [ -2.6999415, 42.524335 ], [ -2.6999232, 42.5242972 ], [ -2.6999102, 42.5242702 ], [ -2.6999532, 42.5242648 ], [ -2.699955, 42.5242645 ], [ -2.6999658, 42.5242839 ], [ -2.6999847, 42.5243182 ], [ -2.7000295, 42.5244 ], [ -2.7000744, 42.5244905 ], [ -2.7001302, 42.5245722 ], [ -2.7001947, 42.5247029 ], [ -2.7002501, 42.5248051 ], [ -2.700281, 42.5248503 ], [ -2.7003054, 42.524879 ], [ -2.7003352, 42.5248935 ], [ -2.7003588, 42.5248947 ], [ -2.7003651, 42.5248929 ], [ -2.7003226, 42.5249348 ], [ -2.7002779, 42.5249611 ] ] ] ] } },
{ "type": "Feature", "properties": { "paraje": "Las Laderas de José Luis", "provincia": "Araba/Álava", "municipio": "Baños de Ebro/Mañueta", "poligono": "1", "parcela": "401", "recinto": "2", "uso_sigpac": "VI", "superficie": 296.7726, "orden": "<a href=\"https://www.boe.es/boe/dias/2019/07/30/pdfs/BOE-A-2019-11186.pdf\" target=\"_blank\">APA/816/2019</a>", "expediente": "VS-038/2019", "boe": "BOE_181_30072019", "area": 296.892, "promotor": "Dominio de Berzal S.L." }, "geometry": { "type": "MultiPolygon", "coordinates": [ [ [ [ -2.7002525, 42.5249628 ], [ -2.7002114, 42.5249437 ], [ -2.7001652, 42.5248941 ], [ -2.7001296, 42.5248006 ], [ -2.7000812, 42.5246994 ], [ -2.7000419, 42.5246151 ], [ -2.7000226, 42.5245735 ], [ -2.6999844, 42.5244877 ], [ -2.6999461, 42.5244057 ], [ -2.6999309, 42.5243504 ], [ -2.6999156, 42.5243085 ], [ -2.6999232, 42.5242972 ], [ -2.6999415, 42.524335 ], [ -2.6999782, 42.5244127 ], [ -2.7000451, 42.5245327 ], [ -2.7001262, 42.5246675 ], [ -2.7002481, 42.5249013 ], [ -2.7002662, 42.5249377 ], [ -2.7002779, 42.5249611 ], [ -2.7002525, 42.5249628 ] ] ] ] } },
{ "type": "Feature", "properties": { "paraje": "Las Laderas de José Luis", "provincia": "Araba/Álava", "municipio": "Baños de Ebro/Mañueta", "poligono": "1", "parcela": "403", "recinto": "1", "uso_sigpac": "VI", "superficie": 4222.9009, "orden": "<a href=\"https://www.boe.es/boe/dias/2019/07/30/pdfs/BOE-A-2019-11186.pdf\" target=\"_blank\">APA/816/2019</a>", "expediente": "VS-038/2019", "boe": "BOE_181_30072019", "area": 4226.3091, "promotor": "Dominio de Berzal S.L." }, "geometry": { "type": "MultiPolygon", "coordinates": [ [ [ [ -2.6997383, 42.5253876 ], [ -2.6997266, 42.5253695 ], [ -2.6996759, 42.5252907 ], [ -2.6996117, 42.5251939 ], [ -2.6995652, 42.5251235 ], [ -2.6995563, 42.52511 ], [ -2.6995408, 42.5250867 ], [ -2.6995113, 42.5250402 ], [ -2.69951, 42.5250382 ], [ -2.6994561, 42.5249534 ], [ -2.6994138, 42.5248868 ], [ -2.6993034, 42.5247294 ], [ -2.6993953, 42.5246728 ], [ -2.699468, 42.5246513 ], [ -2.6996095, 42.5246288 ], [ -2.6997068, 42.5246134 ], [ -2.6999056, 42.5245614 ], [ -2.6999444, 42.5246208 ], [ -2.7000871, 42.5248363 ], [ -2.7001763, 42.524995 ], [ -2.7002209, 42.5250743 ], [ -2.7002211, 42.5250746 ], [ -2.7002548, 42.5251345 ], [ -2.7002477, 42.5251652 ], [ -2.7002362, 42.5251918 ], [ -2.7002314, 42.5252014 ], [ -2.700129, 42.5252698 ], [ -2.700007, 42.5253145 ], [ -2.6998795, 42.5253611 ], [ -2.699743, 42.525395 ], [ -2.6997383, 42.5253876 ] ] ] ] } },
{ "type": "Feature", "properties": { "paraje": "Marqués de Elciego", "provincia": "Araba/Álava", "municipio": "Baños de Ebro/Mañueta", "poligono": "5", "parcela": "60000", "recinto": "1", "uso_sigpac": "VI", "superficie": 50.1025, "orden": "<a href=\"https://www.boe.es/boe/dias/2020/08/08/pdfs/BOE-A-2020-9446.pdf\" target=\"_blank\">APA/780/2020</a>", "expediente": "VS-106/2019", "boe": "BOE_214_08082020", "area": 50.1048, "promotor": "Bodegas Eguía S.L." }, "geometry": { "type": "MultiPolygon", "coordinates": [ [ [ [ -2.6467528, 42.5126422 ], [ -2.6466155, 42.5124211 ], [ -2.6466419, 42.512419 ], [ -2.6467486, 42.51259 ], [ -2.6467528, 42.5126422 ] ] ] ] } },
{ "type": "Feature", "properties": { "paraje": "Cantogordo", "provincia": "Araba/Álava", "municipio": "Baños de Ebro/Mañueta", "poligono": "2", "parcela": "531", "recinto": "1", "uso_sigpac": "VI", "superficie": 316.2361, "orden": "<a href=\"https://www.boe.es/boe/dias/2019/07/30/pdfs/BOE-A-2019-11186.pdf\" target=\"_blank\">APA/816/2019</a>", "expediente": "VS-074/2019", "boe": "BOE_181_30072019", "area": 316.4753, "promotor": "D.O.5 Hispanobodegas S.L.U." }, "geometry": { "type": "MultiPolygon", "coordinates": [ [ [ [ -2.6905629, 42.5429313 ], [ -2.6905704, 42.5429202 ], [ -2.6906531, 42.5427981 ], [ -2.6908498, 42.5426823 ], [ -2.6908616, 42.542688 ], [ -2.6908965, 42.5427067 ], [ -2.6909731, 42.54276 ], [ -2.6908143, 42.5428263 ], [ -2.6908111, 42.5428276 ], [ -2.6905793, 42.5429244 ], [ -2.6905758, 42.5429259 ], [ -2.6905629, 42.5429313 ] ] ] ] } },
{ "type": "Feature", "properties": { "paraje": "Marqués de Elciego", "provincia": "Araba/Álava", "municipio": "Baños de Ebro/Mañueta", "poligono": "5", "parcela": "558", "recinto": "1", "uso_sigpac": "VI", "superficie": 1683.2877, "orden": "<a href=\"https://www.boe.es/boe/dias/2020/08/08/pdfs/BOE-A-2020-9446.pdf\" target=\"_blank\">APA/780/2020</a>", "expediente": "VS-106/2019", "boe": "BOE_214_08082020", "area": 1684.831, "promotor": "Bodegas Eguía S.L." }, "geometry": { "type": "MultiPolygon", "coordinates": [ [ [ [ -2.6495273, 42.5170648 ], [ -2.6492971, 42.5166851 ], [ -2.6492959, 42.5166832 ], [ -2.6491306, 42.5164105 ], [ -2.6491955, 42.5164613 ], [ -2.6492799, 42.5165206 ], [ -2.6493612, 42.5165804 ], [ -2.6494962, 42.5166589 ], [ -2.6496147, 42.5167484 ], [ -2.6497233, 42.5168467 ], [ -2.6498015, 42.5169279 ], [ -2.6498728, 42.5170125 ], [ -2.6499413, 42.5171071 ], [ -2.6499961, 42.5172041 ], [ -2.6499996, 42.5172168 ], [ -2.6496057, 42.51709 ], [ -2.6495273, 42.5170648 ] ] ] ] } },
{ "type": "Feature", "properties": { "paraje": "Los Coloraos", "provincia": "Araba/Álava", "municipio": "Baños de Ebro/Mañueta", "poligono": "5", "parcela": "78", "recinto": "1", "uso_sigpac": "VI", "superficie": 1342.2518, "orden": "<a href=\"https://www.boe.es/boe/dias/2024/07/31/pdfs/BOE-A-2024-15839.pdf\" target=\"_blank\">APA/808/2024</a>", "expediente": "VS-184/2024", "boe": "BOE/184_31072024", "area": 1343.3013, "promotor": "Bodegas de Santiago S.C." }, "geometry": { "type": "MultiPolygon", "coordinates": [ [ [ [ -2.6650921, 42.5243316 ], [ -2.6651504, 42.5242639 ], [ -2.6652628, 42.5241314 ], [ -2.6653852, 42.5239862 ], [ -2.6654663, 42.5238833 ], [ -2.665542, 42.5237711 ], [ -2.665581, 42.5237169 ], [ -2.6656032, 42.5236932 ], [ -2.6656211, 42.5237444 ], [ -2.6656863, 42.5237796 ], [ -2.6657317, 42.5238052 ], [ -2.6657492, 42.5238245 ], [ -2.665737, 42.5238563 ], [ -2.6657051, 42.5239284 ], [ -2.6656564, 42.5240128 ], [ -2.6655977, 42.5241031 ], [ -2.6655633, 42.5241339 ], [ -2.6655339, 42.5241575 ], [ -2.6654922, 42.5241788 ], [ -2.6654468, 42.5242 ], [ -2.6654021, 42.524217 ], [ -2.6653629, 42.5242323 ], [ -2.6653354, 42.5242504 ], [ -2.6653233, 42.5242763 ], [ -2.6652947, 42.524288 ], [ -2.66526, 42.5243201 ], [ -2.6652543, 42.5243564 ], [ -2.6652125, 42.5243617 ], [ -2.6650921, 42.5243316 ] ] ] ] } },
{ "type": "Feature", "properties": { "paraje": "La Ventanilla Bideona", "provincia": "Araba/Álava", "municipio": "Baños de Ebro/Mañueta", "poligono": "2", "parcela": "416", "recinto": "1", "uso_sigpac": "VI", "superficie": 4467.8654, "orden": "<a href=\"https://www.boe.es/boe/dias/2024/07/31/pdfs/BOE-A-2024-15839.pdf\" target=\"_blank\">APA/808/2024</a>", "expediente": "VS-196/2024", "boe": "BOE/184_31072024", "area": 4471.3658, "promotor": "Bodega Bideona S.L.U." }, "geometry": { "type": "MultiPolygon", "coordinates": [ [ [ [ -2.6805362, 42.5333625 ], [ -2.680496, 42.5333568 ], [ -2.680396, 42.5333334 ], [ -2.6802899, 42.5332991 ], [ -2.6801932, 42.5332633 ], [ -2.6800981, 42.533229 ], [ -2.6799933, 42.5331942 ], [ -2.679881, 42.5331593 ], [ -2.6797878, 42.5331351 ], [ -2.6797235, 42.533125 ], [ -2.6797125, 42.5331233 ], [ -2.6796674, 42.533124 ], [ -2.6796258, 42.5331301 ], [ -2.6795621, 42.5331395 ], [ -2.6795069, 42.533142 ], [ -2.6794823, 42.5331415 ], [ -2.6794812, 42.5331414 ], [ -2.6794486, 42.5331409 ], [ -2.6794464, 42.5331408 ], [ -2.679398, 42.533141 ], [ -2.6793498, 42.5331389 ], [ -2.6792961, 42.533129 ], [ -2.6792597, 42.5331184 ], [ -2.679227, 42.5331081 ], [ -2.6792055, 42.5330938 ], [ -2.6791833, 42.5330773 ], [ -2.6791742, 42.5330657 ], [ -2.6792029, 42.5330398 ], [ -2.6792194, 42.5330254 ], [ -2.6792254, 42.5330202 ], [ -2.679254, 42.533002 ], [ -2.6793049, 42.5329767 ], [ -2.6793485, 42.5329539 ], [ -2.6793851, 42.5329294 ], [ -2.6794132, 42.5329099 ], [ -2.6794475, 42.5328775 ], [ -2.6794751, 42.5328424 ], [ -2.6795125, 42.5328027 ], [ -2.679537, 42.5327616 ], [ -2.6795565, 42.5327274 ], [ -2.6795841, 42.5326905 ], [ -2.6796048, 42.5326681 ], [ -2.6796672, 42.5326531 ], [ -2.6796892, 42.5326354 ], [ -2.679771, 42.5325691 ], [ -2.6798153, 42.5325253 ], [ -2.6798732, 42.5324829 ], [ -2.6799341, 42.5324148 ], [ -2.6799645, 42.532429 ], [ -2.6800193, 42.5324466 ], [ -2.680072, 42.5324644 ], [ -2.6800413, 42.5325134 ], [ -2.679985, 42.5326227 ], [ -2.6799584, 42.5327206 ], [ -2.6799494, 42.5327695 ], [ -2.6799283, 42.5328171 ], [ -2.6799334, 42.5328377 ], [ -2.6799663, 42.5328803 ], [ -2.6800618, 42.5329296 ], [ -2.680136, 42.532946 ], [ -2.6801433, 42.532949 ], [ -2.680173, 42.5329615 ], [ -2.6801873, 42.5329657 ], [ -2.6802065, 42.5329881 ], [ -2.6802335, 42.5330195 ], [ -2.6803215, 42.5330487 ], [ -2.680486, 42.5330792 ], [ -2.6806007, 42.5330824 ], [ -2.6805917, 42.5331172 ], [ -2.6805883, 42.5331308 ], [ -2.680583, 42.5331512 ], [ -2.6805807, 42.5331608 ], [ -2.6805574, 42.5332751 ], [ -2.6805487, 42.533311 ], [ -2.6805411, 42.5333423 ], [ -2.6805362, 42.5333625 ] ] ] ] } },
{ "type": "Feature", "properties": { "paraje": "La Ventanilla Bideona", "provincia": "Araba/Álava", "municipio": "Baños de Ebro/Mañueta", "poligono": "2", "parcela": "417", "recinto": "1", "uso_sigpac": "VI", "superficie": 3111.0634, "orden": "<a href=\"https://www.boe.es/boe/dias/2024/07/31/pdfs/BOE-A-2024-15839.pdf\" target=\"_blank\">APA/808/2024</a>", "expediente": "VS-196/2024", "boe": "BOE/184_31072024", "area": 3113.5012, "promotor": "Bodega Bideona S.L.U." }, "geometry": { "type": "MultiPolygon", "coordinates": [ [ [ [ -2.6814146, 42.5334166 ], [ -2.6810515, 42.5333786 ], [ -2.6810244, 42.5334226 ], [ -2.6810089, 42.5334219 ], [ -2.6809124, 42.5334118 ], [ -2.6807672, 42.5333966 ], [ -2.6806159, 42.5333738 ], [ -2.6805362, 42.5333625 ], [ -2.6805411, 42.5333423 ], [ -2.6805487, 42.533311 ], [ -2.6805574, 42.5332751 ], [ -2.6805807, 42.5331608 ], [ -2.680583, 42.5331512 ], [ -2.6805883, 42.5331308 ], [ -2.6805917, 42.5331172 ], [ -2.6806007, 42.5330824 ], [ -2.6807337, 42.533072 ], [ -2.6808426, 42.5330542 ], [ -2.6809673, 42.5330249 ], [ -2.6810371, 42.5330148 ], [ -2.6811015, 42.5330189 ], [ -2.6812103, 42.5330379 ], [ -2.6813276, 42.5330858 ], [ -2.6814484, 42.5331326 ], [ -2.6815546, 42.5331541 ], [ -2.6816268, 42.5331653 ], [ -2.6817006, 42.5332035 ], [ -2.6817258, 42.53323 ], [ -2.6816957, 42.5332763 ], [ -2.6816795, 42.5332786 ], [ -2.6816675, 42.5332819 ], [ -2.6816176, 42.5332956 ], [ -2.6816138, 42.5332966 ], [ -2.6815585, 42.5333179 ], [ -2.6815306, 42.5333365 ], [ -2.681505, 42.5333551 ], [ -2.6814752, 42.5333784 ], [ -2.6814546, 42.5333924 ], [ -2.6814274, 42.5334086 ], [ -2.6814247, 42.5334102 ], [ -2.6814146, 42.5334166 ] ] ] ] } },
{ "type": "Feature", "properties": { "paraje": "JMA tan antiguo y tan nuevo", "provincia": "Araba/Álava", "municipio": "Baños de Ebro/Mañueta", "poligono": "5", "parcela": "287", "recinto": "1", "uso_sigpac": "VI", "superficie": 1106.8733, "orden": "<a href=\"https://www.boe.es/boe/dias/2025/06/04/pdfs/BOE-A-2025-11177.pdf\" target=\"_blank\">APA/571/2025</a>", "expediente": "VS-199/2025", "boe": "BOE_134_04062025", "area": 1107.7379, "promotor": "María Victoria Sáenz Villanueva" }, "geometry": { "type": "MultiPolygon", "coordinates": [ [ [ [ -2.6585014, 42.5204956 ], [ -2.658433, 42.5204236 ], [ -2.6582952, 42.5203016 ], [ -2.6581873, 42.5202176 ], [ -2.6580912, 42.5201496 ], [ -2.6579691, 42.5200899 ], [ -2.6578441, 42.5200412 ], [ -2.657737, 42.5200007 ], [ -2.6576336, 42.5199624 ], [ -2.6574973, 42.5199188 ], [ -2.6573484, 42.5198612 ], [ -2.6573027, 42.5198483 ], [ -2.6574006, 42.5198518 ], [ -2.6574042, 42.5198522 ], [ -2.6574538, 42.5198585 ], [ -2.6575577, 42.5198779 ], [ -2.657642, 42.5198965 ], [ -2.6577601, 42.5199269 ], [ -2.6579093, 42.5199678 ], [ -2.65793, 42.5199746 ], [ -2.6580145, 42.5200023 ], [ -2.6580525, 42.5200203 ], [ -2.6581106, 42.5200479 ], [ -2.6582097, 42.5200934 ], [ -2.6583138, 42.5201536 ], [ -2.6583944, 42.5201992 ], [ -2.6583978, 42.5202021 ], [ -2.6584875, 42.5202778 ], [ -2.6585421, 42.5203103 ], [ -2.6585581, 42.5203198 ], [ -2.6585007, 42.5203506 ], [ -2.6584464, 42.5203754 ], [ -2.6584682, 42.5203955 ], [ -2.6584805, 42.520411 ], [ -2.6585018, 42.520449 ], [ -2.6585014, 42.5204956 ] ] ] ] } },
{ "type": "Feature", "properties": { "paraje": "JMA tan antiguo y tan nuevo", "provincia": "Araba/Álava", "municipio": "Baños de Ebro/Mañueta", "poligono": "5", "parcela": "289", "recinto": "1", "uso_sigpac": "VI", "superficie": 607.6155, "orden": "<a href=\"https://www.boe.es/boe/dias/2025/06/04/pdfs/BOE-A-2025-11177.pdf\" target=\"_blank\">APA/571/2025</a>", "expediente": "VS-199/2025", "boe": "BOE_134_04062025", "area": 608.0901, "promotor": "María Victoria Sáenz Villanueva" }, "geometry": { "type": "MultiPolygon", "coordinates": [ [ [ [ -2.6587215, 42.5202704 ], [ -2.658653, 42.5202233 ], [ -2.6586058, 42.5201918 ], [ -2.6585451, 42.5201627 ], [ -2.6584268, 42.5201062 ], [ -2.6583258, 42.5200547 ], [ -2.6582495, 42.5200054 ], [ -2.6581945, 42.5199808 ], [ -2.6581483, 42.5199556 ], [ -2.6582185, 42.5199698 ], [ -2.6583614, 42.5199937 ], [ -2.658441, 42.5200071 ], [ -2.6584685, 42.5200118 ], [ -2.658607, 42.5200324 ], [ -2.6587481, 42.5200537 ], [ -2.6587821, 42.5200566 ], [ -2.6587755, 42.520087 ], [ -2.6587707, 42.5201191 ], [ -2.6587542, 42.5201704 ], [ -2.658737, 42.5202346 ], [ -2.6587215, 42.5202704 ] ] ] ] } },
{ "type": "Feature", "properties": { "paraje": "JMA tan antiguo y tan nuevo", "provincia": "Araba/Álava", "municipio": "Baños de Ebro/Mañueta", "poligono": "5", "parcela": "290", "recinto": "1", "uso_sigpac": "VI", "superficie": 888.9756, "orden": "<a href=\"https://www.boe.es/boe/dias/2025/06/04/pdfs/BOE-A-2025-11177.pdf\" target=\"_blank\">APA/571/2025</a>", "expediente": "VS-199/2025", "boe": "BOE_134_04062025", "area": 889.67, "promotor": "María Victoria Sáenz Villanueva" }, "geometry": { "type": "MultiPolygon", "coordinates": [ [ [ [ -2.6586726, 42.5203576 ], [ -2.6587071, 42.5203038 ], [ -2.6587215, 42.5202704 ], [ -2.658737, 42.5202346 ], [ -2.6587542, 42.5201704 ], [ -2.6587707, 42.5201191 ], [ -2.6587755, 42.520087 ], [ -2.6587821, 42.5200566 ], [ -2.6588786, 42.5200652 ], [ -2.6589032, 42.5200666 ], [ -2.6590078, 42.5200727 ], [ -2.6590098, 42.5200956 ], [ -2.6590143, 42.5201396 ], [ -2.6590353, 42.5202764 ], [ -2.659043, 42.5203661 ], [ -2.6590556, 42.5204052 ], [ -2.6590617, 42.5204239 ], [ -2.6590215, 42.5204144 ], [ -2.6588404, 42.5203937 ], [ -2.658729, 42.5203748 ], [ -2.6586726, 42.5203576 ] ] ] ] } },
{ "type": "Feature", "properties": { "paraje": "JMA tan antiguo y tan nuevo", "provincia": "Araba/Álava", "municipio": "Baños de Ebro/Mañueta", "poligono": "5", "parcela": "291", "recinto": "1", "uso_sigpac": "VI", "superficie": 4008.7832, "orden": "<a href=\"https://www.boe.es/boe/dias/2025/06/04/pdfs/BOE-A-2025-11177.pdf\" target=\"_blank\">APA/571/2025</a>", "expediente": "VS-199/2025", "boe": "BOE_134_04062025", "area": 4011.9147, "promotor": "María Victoria Sáenz Villanueva" }, "geometry": { "type": "MultiPolygon", "coordinates": [ [ [ [ -2.6590617, 42.5204239 ], [ -2.6590556, 42.5204052 ], [ -2.659043, 42.5203661 ], [ -2.6590353, 42.5202764 ], [ -2.6590143, 42.5201396 ], [ -2.6590098, 42.5200956 ], [ -2.6590078, 42.5200727 ], [ -2.6589032, 42.5200666 ], [ -2.6589083, 42.520032 ], [ -2.658913, 42.5200015 ], [ -2.6589139, 42.5199246 ], [ -2.6589358, 42.519853 ], [ -2.6589521, 42.5197376 ], [ -2.6589727, 42.5196207 ], [ -2.6590054, 42.5195408 ], [ -2.6590058, 42.5195395 ], [ -2.6590099, 42.5195295 ], [ -2.6590388, 42.5194581 ], [ -2.6590424, 42.5194493 ], [ -2.6590645, 42.5193911 ], [ -2.6590847, 42.5193634 ], [ -2.6591698, 42.5193596 ], [ -2.6592056, 42.5193671 ], [ -2.6593324, 42.5194288 ], [ -2.6593688, 42.5194464 ], [ -2.6593865, 42.5194649 ], [ -2.6595162, 42.5195181 ], [ -2.6595902, 42.519569 ], [ -2.659593, 42.5195912 ], [ -2.6595553, 42.5196555 ], [ -2.6595296, 42.5196738 ], [ -2.6595262, 42.5196762 ], [ -2.6595121, 42.5197073 ], [ -2.6595067, 42.519754 ], [ -2.6595026, 42.5198045 ], [ -2.6594835, 42.5198343 ], [ -2.6594498, 42.5198683 ], [ -2.6593932, 42.5199339 ], [ -2.659329, 42.5199927 ], [ -2.6592519, 42.5200437 ], [ -2.6592287, 42.5200877 ], [ -2.659238, 42.520117 ], [ -2.6592716, 42.5201494 ], [ -2.65931, 42.5201832 ], [ -2.6593254, 42.5202225 ], [ -2.6593207, 42.520245 ], [ -2.6593235, 42.5203004 ], [ -2.6593366, 42.5203293 ], [ -2.6593609, 42.5203663 ], [ -2.6593771, 42.5204048 ], [ -2.6593785, 42.520435 ], [ -2.6593704, 42.5204474 ], [ -2.6593359, 42.5204543 ], [ -2.6592382, 42.5204504 ], [ -2.6591349, 42.5204415 ], [ -2.6591242, 42.520439 ], [ -2.6590617, 42.5204239 ] ] ] ] } },
{ "type": "Feature", "properties": { "paraje": "JMA tan antiguo y tan nuevo", "provincia": "Araba/Álava", "municipio": "Baños de Ebro/Mañueta", "poligono": "5", "parcela": "292", "recinto": "3", "uso_sigpac": "VI", "superficie": 334.3982, "orden": "<a href=\"https://www.boe.es/boe/dias/2025/06/04/pdfs/BOE-A-2025-11177.pdf\" target=\"_blank\">APA/571/2025</a>", "expediente": "VS-199/2025", "boe": "BOE_134_04062025", "area": 334.6594, "promotor": "María Victoria Sáenz Villanueva" }, "geometry": { "type": "MultiPolygon", "coordinates": [ [ [ [ -2.6590054, 42.5195408 ], [ -2.6589277, 42.5195128 ], [ -2.6588446, 42.5194924 ], [ -2.6587773, 42.519476 ], [ -2.6587814, 42.5194417 ], [ -2.6587875, 42.5194109 ], [ -2.6587892, 42.5193814 ], [ -2.6588035, 42.5193807 ], [ -2.6588751, 42.5193737 ], [ -2.6589678, 42.5193643 ], [ -2.6590563, 42.5193549 ], [ -2.6590847, 42.5193634 ], [ -2.6590645, 42.5193911 ], [ -2.6590424, 42.5194493 ], [ -2.6590388, 42.5194581 ], [ -2.6590099, 42.5195295 ], [ -2.6590058, 42.5195395 ], [ -2.6590054, 42.5195408 ] ] ] ] } }
]
}
