{
"type": "FeatureCollection",
"name": "viñedos_singulares-medrano",
"crs": { "type": "name", "properties": { "name": "urn:ogc:def:crs:OGC:1.3:CRS84" } },
"xy_coordinate_resolution": 1e-07,
"features": [
{ "type": "Feature", "properties": { "paraje": "Antanares", "provincia": "La Rioja", "municipio": "Medrano", "poligono": "9", "parcela": "205", "recinto": "2", "uso_sigpac": "VI", "superficie": 281.3141, "orden": "<a href=\"https://www.boe.es/boe/dias/2023/07/26/pdfs/BOE-A-2023-17245.pdf\" target=\"_blank\">APA/873/2023</a>", "expediente": "VS-169/2023", "boe": "BOE/177_26072023", "area": 281.5919, "promotor": "Ricardo Pérez Montenegro" }, "geometry": { "type": "MultiPolygon", "coordinates": [ [ [ [ -2.5595686, 42.3967329 ], [ -2.5595716, 42.3967363 ], [ -2.5595921, 42.3967508 ], [ -2.5595949, 42.3967541 ], [ -2.558654, 42.397098 ], [ -2.5586399, 42.397068 ], [ -2.5595686, 42.3967329 ] ] ] ] } },
{ "type": "Feature", "properties": { "paraje": "Antanares", "provincia": "La Rioja", "municipio": "Medrano", "poligono": "9", "parcela": "206", "recinto": "1", "uso_sigpac": "VI", "superficie": 1817.6811, "orden": "<a href=\"https://www.boe.es/boe/dias/2023/07/26/pdfs/BOE-A-2023-17245.pdf\" target=\"_blank\">APA/873/2023</a>", "expediente": "VS-169/2023", "boe": "BOE/177_26072023", "area": 1819.4791, "promotor": "Ricardo Pérez Montenegro" }, "geometry": { "type": "MultiPolygon", "coordinates": [ [ [ [ -2.5593427, 42.3965447 ], [ -2.5593683, 42.3965655 ], [ -2.5593732, 42.39657 ], [ -2.5594058, 42.3965998 ], [ -2.5594111, 42.3966048 ], [ -2.559442, 42.396633 ], [ -2.5595069, 42.3966642 ], [ -2.5595134, 42.3966713 ], [ -2.5595686, 42.3967329 ], [ -2.5586399, 42.397068 ], [ -2.5586245, 42.397035 ], [ -2.5586256, 42.3970194 ], [ -2.5586071, 42.3969421 ], [ -2.5585921, 42.3968961 ], [ -2.5593427, 42.3965447 ] ] ] ] } },
{ "type": "Feature", "properties": { "paraje": "Antanares", "provincia": "La Rioja", "municipio": "Medrano", "poligono": "10", "parcela": "73", "recinto": "1", "uso_sigpac": "VI", "superficie": 1388.5649, "orden": "<a href=\"https://www.boe.es/boe/dias/2023/07/26/pdfs/BOE-A-2023-17245.pdf\" target=\"_blank\">APA/873/2023</a>", "expediente": "VS-169/2023", "boe": "BOE/177_26072023", "area": 1388.6092, "promotor": "Ricardo Pérez Montenegro" }, "geometry": { "type": "MultiPolygon", "coordinates": [ [ [ [ -2.5553823, 42.4029445 ], [ -2.5553092, 42.4029622 ], [ -2.5552608, 42.402944 ], [ -2.5552125, 42.4028988 ], [ -2.5554972, 42.4021524 ], [ -2.5555704, 42.4021077 ], [ -2.5556919, 42.4021171 ], [ -2.5553823, 42.4029445 ] ] ] ] } },
{ "type": "Feature", "properties": { "paraje": "Viña Macua", "provincia": "La Rioja", "municipio": "Medrano", "poligono": "4", "parcela": "162", "recinto": "1", "uso_sigpac": "VI", "superficie": 4311.1824, "orden": "<a href=\"https://www.boe.es/boe/dias/2023/07/26/pdfs/BOE-A-2023-17245.pdf\" target=\"_blank\">APA/873/2023</a>", "expediente": "VS-170/2023", "boe": "BOE/177_26072023", "area": 4314.4894, "promotor": "Nando Ventura Pérez Montenegro" }, "geometry": { "type": "MultiPolygon", "coordinates": [ [ [ [ -2.5527312, 42.380161 ], [ -2.5529079, 42.3801678 ], [ -2.5529546, 42.3801697 ], [ -2.5530537, 42.3802023 ], [ -2.5531368, 42.3802215 ], [ -2.5533111, 42.3802618 ], [ -2.5535645, 42.3803204 ], [ -2.5535816, 42.3803243 ], [ -2.5536085, 42.3803305 ], [ -2.5536069, 42.3803335 ], [ -2.5536021, 42.3803425 ], [ -2.553599, 42.3803481 ], [ -2.5535979, 42.3803501 ], [ -2.5535406, 42.3804564 ], [ -2.5535282, 42.380463 ], [ -2.5535053, 42.380463 ], [ -2.5534966, 42.380463 ], [ -2.5533643, 42.3804626 ], [ -2.5532258, 42.3804623 ], [ -2.5532011, 42.3804623 ], [ -2.5532002, 42.3804623 ], [ -2.5531894, 42.3804623 ], [ -2.5530639, 42.3804968 ], [ -2.5527283, 42.3805893 ], [ -2.5527229, 42.3805884 ], [ -2.5527218, 42.3805882 ], [ -2.5526889, 42.3805825 ], [ -2.5526766, 42.3805804 ], [ -2.5522994, 42.3806454 ], [ -2.552281, 42.3806486 ], [ -2.5520517, 42.380433 ], [ -2.5520481, 42.3804296 ], [ -2.5521205, 42.3803001 ], [ -2.5522274, 42.380238 ], [ -2.5527312, 42.380161 ] ] ] ] } },
{ "type": "Feature", "properties": { "paraje": "Viña Macua", "provincia": "La Rioja", "municipio": "Medrano", "poligono": "4", "parcela": "295", "recinto": "1", "uso_sigpac": "VI", "superficie": 3918.2663, "orden": "<a href=\"https://www.boe.es/boe/dias/2023/07/26/pdfs/BOE-A-2023-17245.pdf\" target=\"_blank\">APA/873/2023</a>", "expediente": "VS-170/2023", "boe": "BOE/177_26072023", "area": 3921.2712, "promotor": "Nando Ventura Pérez Montenegro" }, "geometry": { "type": "MultiPolygon", "coordinates": [ [ [ [ -2.5513525, 42.3798267 ], [ -2.5514038, 42.3800282 ], [ -2.5514124, 42.3800468 ], [ -2.5514173, 42.3800575 ], [ -2.5514654, 42.380162 ], [ -2.5514712, 42.3801746 ], [ -2.55155, 42.3802359 ], [ -2.5516258, 42.3802947 ], [ -2.5518452, 42.3804526 ], [ -2.5519793, 42.3805206 ], [ -2.5519981, 42.3805301 ], [ -2.5520009, 42.380532 ], [ -2.5519204, 42.3805943 ], [ -2.5518282, 42.3806425 ], [ -2.5517303, 42.380678 ], [ -2.5516997, 42.3806781 ], [ -2.5516536, 42.3806783 ], [ -2.5516256, 42.3806784 ], [ -2.5516113, 42.3806785 ], [ -2.5515436, 42.3806961 ], [ -2.5514241, 42.380727 ], [ -2.5514136, 42.3807139 ], [ -2.5511157, 42.3803438 ], [ -2.5508876, 42.3800606 ], [ -2.5508993, 42.3800534 ], [ -2.5509542, 42.3800179 ], [ -2.5510215, 42.3799701 ], [ -2.5510464, 42.3799567 ], [ -2.55108, 42.3799346 ], [ -2.551121, 42.3799121 ], [ -2.5511554, 42.3798917 ], [ -2.5511788, 42.3798804 ], [ -2.5512284, 42.3798606 ], [ -2.5512671, 42.3798462 ], [ -2.5512898, 42.3798354 ], [ -2.5513182, 42.379828 ], [ -2.5513401, 42.379827 ], [ -2.5513525, 42.3798267 ] ] ] ] } },
{ "type": "Feature", "properties": { "paraje": "Viña Macua", "provincia": "La Rioja", "municipio": "Medrano", "poligono": "4", "parcela": "160", "recinto": "1", "uso_sigpac": "VI", "superficie": 1940.4518, "orden": "<a href=\"https://www.boe.es/boe/dias/2023/07/26/pdfs/BOE-A-2023-17245.pdf\" target=\"_blank\">APA/873/2023</a>", "expediente": "VS-170/2023", "boe": "BOE/177_26072023", "area": 1941.9403, "promotor": "Nando Ventura Pérez Montenegro" }, "geometry": { "type": "MultiPolygon", "coordinates": [ [ [ [ -2.5530639, 42.3804968 ], [ -2.5530622, 42.3805014 ], [ -2.5528087, 42.3811729 ], [ -2.5527072, 42.3814376 ], [ -2.5526922, 42.3814768 ], [ -2.5525544, 42.3811992 ], [ -2.5525649, 42.3811682 ], [ -2.5525846, 42.38111 ], [ -2.552627, 42.380968 ], [ -2.5526611, 42.380833 ], [ -2.5527, 42.3806871 ], [ -2.5527281, 42.3805901 ], [ -2.5527283, 42.3805893 ], [ -2.5530639, 42.3804968 ] ] ] ] } },
{ "type": "Feature", "properties": { "paraje": "Viña Macua", "provincia": "La Rioja", "municipio": "Medrano", "poligono": "4", "parcela": "158", "recinto": "2", "uso_sigpac": "VI", "superficie": 3433.1319, "orden": "<a href=\"https://www.boe.es/boe/dias/2023/07/26/pdfs/BOE-A-2023-17245.pdf\" target=\"_blank\">APA/873/2023</a>", "expediente": "VS-170/2023", "boe": "BOE/177_26072023", "area": 3433.1319, "promotor": "Nando Ventura Pérez Montenegro" }, "geometry": { "type": "MultiPolygon", "coordinates": [ [ [ [ -2.5530353, 42.3809246 ], [ -2.5530731, 42.3807357 ], [ -2.5531843, 42.3804659 ], [ -2.5534758, 42.380476 ], [ -2.5538647, 42.3804415 ], [ -2.5540953, 42.3804695 ], [ -2.5542408, 42.380515 ], [ -2.5540461, 42.3805593 ], [ -2.5540578, 42.3806224 ], [ -2.5541182, 42.3806677 ], [ -2.5541053, 42.3807757 ], [ -2.5535097, 42.3808364 ], [ -2.5530353, 42.3809246 ] ] ] ] } },
{ "type": "Feature", "properties": { "paraje": "Cerro Mirabuenas", "provincia": "La Rioja", "municipio": "Medrano", "poligono": "2", "parcela": "44", "recinto": "1", "uso_sigpac": "VI", "superficie": 2693.0622, "orden": "<a href=\"https://www.boe.es/boe/dias/2023/07/26/pdfs/BOE-A-2023-17245.pdf\" target=\"_blank\">APA/873/2023</a>", "expediente": "VS-171/2023", "boe": "BOE/177_26072023", "area": 2693.0622, "promotor": "Nando Ventura Pérez Montenegro" }, "geometry": { "type": "MultiPolygon", "coordinates": [ [ [ [ -2.5484066, 42.399639 ], [ -2.5469863, 42.3994443 ], [ -2.5469758, 42.3992281 ], [ -2.5482867, 42.3994134 ], [ -2.5483713, 42.3994858 ], [ -2.5484066, 42.399639 ] ] ] ] } },
{ "type": "Feature", "properties": { "paraje": "Pregosos", "provincia": "La Rioja", "municipio": "Medrano", "poligono": "10", "parcela": "64", "recinto": "1", "uso_sigpac": "VI", "superficie": 9752.6001, "orden": "<a href=\"https://www.boe.es/boe/dias/2023/07/26/pdfs/BOE-A-2023-17245.pdf\" target=\"_blank\">APA/873/2023</a>", "expediente": "VS-172/2023", "boe": "BOE/177_26072023", "area": 9760.0815, "promotor": "Nando Ventura Pérez Montenegro" }, "geometry": { "type": "MultiPolygon", "coordinates": [ [ [ [ -2.553381, 42.4013205 ], [ -2.5533941, 42.4013206 ], [ -2.5533937, 42.4013279 ], [ -2.5533934, 42.4013338 ], [ -2.5533727, 42.4016799 ], [ -2.5532713, 42.4027699 ], [ -2.5532703, 42.402781 ], [ -2.5532519, 42.4027794 ], [ -2.5528789, 42.4027601 ], [ -2.5528689, 42.4027596 ], [ -2.5528193, 42.4025215 ], [ -2.5527912, 42.4022303 ], [ -2.552497, 42.4022011 ], [ -2.5524955, 42.4022009 ], [ -2.5524463, 42.402196 ], [ -2.5524244, 42.4021938 ], [ -2.5522324, 42.4021737 ], [ -2.5522272, 42.4021732 ], [ -2.5521861, 42.4021689 ], [ -2.5521842, 42.4021687 ], [ -2.5521798, 42.4021651 ], [ -2.5521411, 42.4021173 ], [ -2.5521487, 42.4020647 ], [ -2.5521924, 42.4019525 ], [ -2.5523431, 42.4018135 ], [ -2.5525291, 42.4016097 ], [ -2.5526275, 42.4015607 ], [ -2.5527157, 42.4015368 ], [ -2.5527371, 42.4015173 ], [ -2.5527562, 42.4014819 ], [ -2.5527793, 42.4014281 ], [ -2.5527944, 42.4014104 ], [ -2.5528134, 42.4014011 ], [ -2.5528448, 42.4013948 ], [ -2.553381, 42.4013205 ] ] ] ] } },
{ "type": "Feature", "properties": { "paraje": "Pregosos", "provincia": "La Rioja", "municipio": "Medrano", "poligono": "10", "parcela": "53", "recinto": "1", "uso_sigpac": "VI", "superficie": 1965.3439, "orden": "<a href=\"https://www.boe.es/boe/dias/2023/07/26/pdfs/BOE-A-2023-17245.pdf\" target=\"_blank\">APA/873/2023</a>", "expediente": "VS-172/2023", "boe": "BOE/177_26072023", "area": 1966.8515, "promotor": "Nando Ventura Pérez Montenegro" }, "geometry": { "type": "MultiPolygon", "coordinates": [ [ [ [ -2.5524463, 42.402196 ], [ -2.5524955, 42.4022009 ], [ -2.552497, 42.4022011 ], [ -2.5527912, 42.4022303 ], [ -2.5528193, 42.4025215 ], [ -2.5528689, 42.4027596 ], [ -2.552886, 42.402816 ], [ -2.55255, 42.4027677 ], [ -2.5525146, 42.4027626 ], [ -2.5525122, 42.4027616 ], [ -2.5524708, 42.4027461 ], [ -2.5524446, 42.4027363 ], [ -2.5524461, 42.4027084 ], [ -2.5524467, 42.4026969 ], [ -2.5524475, 42.4026806 ], [ -2.5524479, 42.4026734 ], [ -2.5524478, 42.402657 ], [ -2.5524462, 42.4025236 ], [ -2.5524452, 42.402454 ], [ -2.5524458, 42.4023067 ], [ -2.5524458, 42.4023062 ], [ -2.5524463, 42.4021974 ], [ -2.5524463, 42.402196 ] ] ] ] } },
{ "type": "Feature", "properties": { "paraje": "Pregosos", "provincia": "La Rioja", "municipio": "Medrano", "poligono": "10", "parcela": "65", "recinto": "1", "uso_sigpac": "VI", "superficie": 14900.4216, "orden": "<a href=\"https://www.boe.es/boe/dias/2023/07/26/pdfs/BOE-A-2023-17245.pdf\" target=\"_blank\">APA/873/2023</a>", "expediente": "VS-172/2023", "boe": "BOE/177_26072023", "area": 14900.4216, "promotor": "Nando Ventura Pérez Montenegro" }, "geometry": { "type": "MultiPolygon", "coordinates": [ [ [ [ -2.553427, 42.4027838 ], [ -2.5524674, 42.402735 ], [ -2.5524469, 42.4021946 ], [ -2.5521798, 42.4021665 ], [ -2.5521438, 42.4021033 ], [ -2.5522057, 42.4019325 ], [ -2.5525728, 42.4015736 ], [ -2.5527189, 42.4015382 ], [ -2.5527927, 42.4014124 ], [ -2.5537298, 42.4012089 ], [ -2.553427, 42.4027838 ] ] ] ] } }
]
}
