{
"type": "FeatureCollection",
"name": "viñedo-sartaguda",
"crs": { "type": "name", "properties": { "name": "urn:ogc:def:crs:OGC:1.3:CRS84" } },
"xy_coordinate_resolution": 1e-07,
"features": [
{ "type": "Feature", "properties": { "provincia": 31, "municipio": 223, "poligono": 2, "parcela": 980, "recinto": 2, "uso_sigpac": "VI", "sup_sigpac": 1910.7744 }, "geometry": { "type": "MultiPolygon", "coordinates": [ [ [ [ -2.0409692, 42.3900278 ], [ -2.0412192, 42.3898907 ], [ -2.0412474, 42.3899426 ], [ -2.0412764, 42.389992 ], [ -2.0413224, 42.3900585 ], [ -2.0413712, 42.3901275 ], [ -2.0406069, 42.3904598 ], [ -2.0405802, 42.3904056 ], [ -2.0405404, 42.3903494 ], [ -2.0405022, 42.3902978 ], [ -2.0404666, 42.3902588 ], [ -2.0409692, 42.3900278 ] ] ] ] } },
{ "type": "Feature", "properties": { "provincia": 31, "municipio": 223, "poligono": 2, "parcela": 2101, "recinto": 7, "uso_sigpac": "VI", "sup_sigpac": 272.3921 }, "geometry": { "type": "MultiPolygon", "coordinates": [ [ [ [ -2.0436887, 42.3950383 ], [ -2.043621, 42.3949797 ], [ -2.0437307, 42.3950031 ], [ -2.0440533, 42.395287 ], [ -2.0440193, 42.3953098 ], [ -2.0439774, 42.3953117 ], [ -2.0439344, 42.395288 ], [ -2.0438904, 42.3952343 ], [ -2.0436887, 42.3950383 ] ] ] ] } },
{ "type": "Feature", "properties": { "provincia": 31, "municipio": 223, "poligono": 2, "parcela": 951, "recinto": 1, "uso_sigpac": "VI", "sup_sigpac": 6145.5893 }, "geometry": { "type": "MultiPolygon", "coordinates": [ [ [ [ -2.043223, 42.3934516 ], [ -2.044156, 42.3927321 ], [ -2.0442583, 42.392818 ], [ -2.0443519, 42.3929088 ], [ -2.0443934, 42.3929456 ], [ -2.0445825, 42.3930963 ], [ -2.0436903, 42.3938365 ], [ -2.0435872, 42.3937628 ], [ -2.0434811, 42.3936903 ], [ -2.0433398, 42.3935604 ], [ -2.043223, 42.3934516 ] ] ] ] } },
{ "type": "Feature", "properties": { "provincia": 31, "municipio": 223, "poligono": 2, "parcela": 989, "recinto": 1, "uso_sigpac": "VI", "sup_sigpac": 3654.6429 }, "geometry": { "type": "MultiPolygon", "coordinates": [ [ [ [ -2.0422826, 42.3915239 ], [ -2.0423665, 42.3914819 ], [ -2.0427515, 42.3917044 ], [ -2.0421343, 42.392289 ], [ -2.0420914, 42.3922431 ], [ -2.0420315, 42.3921764 ], [ -2.0419826, 42.3921132 ], [ -2.0419245, 42.3920249 ], [ -2.0418754, 42.3919629 ], [ -2.0417343, 42.3918181 ], [ -2.0418462, 42.3917476 ], [ -2.0421258, 42.3915999 ], [ -2.0422826, 42.3915239 ] ] ] ] } },
{ "type": "Feature", "properties": { "provincia": 31, "municipio": 223, "poligono": 2, "parcela": 992, "recinto": 1, "uso_sigpac": "VF", "sup_sigpac": 3965.4118 }, "geometry": { "type": "MultiPolygon", "coordinates": [ [ [ [ -2.0433375, 42.392325 ], [ -2.0435074, 42.3921586 ], [ -2.0439121, 42.3924387 ], [ -2.043152, 42.3930868 ], [ -2.0430178, 42.3929526 ], [ -2.0429565, 42.3929039 ], [ -2.042831, 42.392799 ], [ -2.0433375, 42.392325 ] ] ] ] } },
{ "type": "Feature", "properties": { "provincia": 31, "municipio": 223, "poligono": 2, "parcela": 963, "recinto": 1, "uso_sigpac": "VI", "sup_sigpac": 1452.8464 }, "geometry": { "type": "MultiPolygon", "coordinates": [ [ [ [ -2.0410583, 42.3869778 ], [ -2.0417148, 42.3873783 ], [ -2.0416664, 42.3874467 ], [ -2.0415947, 42.3875116 ], [ -2.0415634, 42.3874944 ], [ -2.0408933, 42.387125 ], [ -2.0408499, 42.3870964 ], [ -2.0408508, 42.3870958 ], [ -2.0409381, 42.3870349 ], [ -2.0410583, 42.3869778 ] ] ] ] } },
{ "type": "Feature", "properties": { "provincia": 31, "municipio": 223, "poligono": 2, "parcela": 794, "recinto": 2, "uso_sigpac": "VI", "sup_sigpac": 2631.0386 }, "geometry": { "type": "MultiPolygon", "coordinates": [ [ [ [ -2.0392899, 42.3851894 ], [ -2.0390079, 42.3850847 ], [ -2.0398577, 42.3845364 ], [ -2.0400943, 42.3847468 ], [ -2.0393673, 42.3852189 ], [ -2.0392899, 42.3851894 ] ] ] ] } },
{ "type": "Feature", "properties": { "provincia": 31, "municipio": 223, "poligono": 2, "parcela": 826, "recinto": 1, "uso_sigpac": "VI", "sup_sigpac": 7124.6393 }, "geometry": { "type": "MultiPolygon", "coordinates": [ [ [ [ -2.0400706, 42.3860121 ], [ -2.0401629, 42.3860812 ], [ -2.0403027, 42.386194 ], [ -2.0404766, 42.3863022 ], [ -2.0405574, 42.3863543 ], [ -2.0405252, 42.3863835 ], [ -2.041085, 42.3868185 ], [ -2.041037, 42.3868414 ], [ -2.0410045, 42.3868286 ], [ -2.0409054, 42.3868443 ], [ -2.0408108, 42.3868748 ], [ -2.0407129, 42.3869316 ], [ -2.0406444, 42.3869874 ], [ -2.0406068, 42.3870536 ], [ -2.0405706, 42.3871302 ], [ -2.0405629, 42.3871347 ], [ -2.0405502, 42.3871644 ], [ -2.0403888, 42.3870481 ], [ -2.0396523, 42.3864842 ], [ -2.0394725, 42.3863381 ], [ -2.0396185, 42.386262 ], [ -2.039864, 42.386128 ], [ -2.0400706, 42.3860121 ] ] ] ] } },
{ "type": "Feature", "properties": { "provincia": 31, "municipio": 223, "poligono": 2, "parcela": 962, "recinto": 1, "uso_sigpac": "VI", "sup_sigpac": 4700.8646 }, "geometry": { "type": "MultiPolygon", "coordinates": [ [ [ [ -2.0416664, 42.3874467 ], [ -2.0417148, 42.3873783 ], [ -2.0417735, 42.3873957 ], [ -2.0419631, 42.3874766 ], [ -2.042182, 42.3875736 ], [ -2.0423577, 42.3876625 ], [ -2.0425271, 42.3877467 ], [ -2.0426673, 42.3878218 ], [ -2.0429015, 42.3879303 ], [ -2.0425976, 42.3882197 ], [ -2.0423896, 42.3881204 ], [ -2.0422138, 42.3880453 ], [ -2.0419919, 42.3879494 ], [ -2.0418008, 42.3878547 ], [ -2.0414882, 42.3876863 ], [ -2.0415306, 42.3876018 ], [ -2.0415947, 42.3875116 ], [ -2.0416664, 42.3874467 ] ] ] ] } },
{ "type": "Feature", "properties": { "provincia": 31, "municipio": 223, "poligono": 2, "parcela": 961, "recinto": 1, "uso_sigpac": "VI", "sup_sigpac": 9605.4453 }, "geometry": { "type": "MultiPolygon", "coordinates": [ [ [ [ -2.0425318, 42.3863555 ], [ -2.0426809, 42.3862835 ], [ -2.0427161, 42.3863375 ], [ -2.0427989, 42.3864351 ], [ -2.0428624, 42.3866094 ], [ -2.0429248, 42.3867469 ], [ -2.0429813, 42.3868376 ], [ -2.0430488, 42.3869043 ], [ -2.0427908, 42.3870037 ], [ -2.0417735, 42.3873957 ], [ -2.0417148, 42.3873783 ], [ -2.0410583, 42.3869778 ], [ -2.0410833, 42.3869659 ], [ -2.0414539, 42.3868179 ], [ -2.0417025, 42.38672 ], [ -2.0419511, 42.3866244 ], [ -2.0421809, 42.3865297 ], [ -2.0425318, 42.3863555 ] ] ] ] } },
{ "type": "Feature", "properties": { "provincia": 31, "municipio": 223, "poligono": 2, "parcela": 831, "recinto": 1, "uso_sigpac": "VI", "sup_sigpac": 9769.5762 }, "geometry": { "type": "MultiPolygon", "coordinates": [ [ [ [ -2.0413015, 42.3861305 ], [ -2.0406586, 42.3857545 ], [ -2.0407706, 42.3857129 ], [ -2.0409662, 42.3856176 ], [ -2.0411841, 42.3854479 ], [ -2.0413505, 42.3853205 ], [ -2.0414286, 42.3852212 ], [ -2.0414624, 42.3852568 ], [ -2.0415177, 42.3853051 ], [ -2.0416561, 42.385411 ], [ -2.0417545, 42.3854812 ], [ -2.0418682, 42.3855847 ], [ -2.0420001, 42.3857307 ], [ -2.0420799, 42.3857997 ], [ -2.0422921, 42.3859585 ], [ -2.0424122, 42.3860266 ], [ -2.0424649, 42.3860199 ], [ -2.0425061, 42.3860876 ], [ -2.0424514, 42.3861583 ], [ -2.042311, 42.38631 ], [ -2.0422082, 42.3863988 ], [ -2.0420841, 42.386452 ], [ -2.0419352, 42.3865018 ], [ -2.0413015, 42.3861305 ] ] ] ] } },
{ "type": "Feature", "properties": { "provincia": 31, "municipio": 223, "poligono": 2, "parcela": 785, "recinto": 1, "uso_sigpac": "VI", "sup_sigpac": 1674.8477 }, "geometry": { "type": "MultiPolygon", "coordinates": [ [ [ [ -2.0378868, 42.383296 ], [ -2.0384357, 42.3829303 ], [ -2.0386639, 42.3831219 ], [ -2.0381242, 42.3834715 ], [ -2.0378868, 42.383296 ] ] ] ] } },
{ "type": "Feature", "properties": { "provincia": 31, "municipio": 223, "poligono": 2, "parcela": 794, "recinto": 3, "uso_sigpac": "VI", "sup_sigpac": 5405.8433 }, "geometry": { "type": "MultiPolygon", "coordinates": [ [ [ [ -2.0403608, 42.3838265 ], [ -2.0404478, 42.3839178 ], [ -2.0404775, 42.383983 ], [ -2.0405414, 42.3840789 ], [ -2.0405527, 42.3840942 ], [ -2.0398577, 42.3845364 ], [ -2.0390079, 42.3850847 ], [ -2.0389045, 42.3850394 ], [ -2.0388423, 42.3850231 ], [ -2.038777, 42.3850246 ], [ -2.038693, 42.3850412 ], [ -2.0386397, 42.3850652 ], [ -2.0385928, 42.3850816 ], [ -2.0385488, 42.3850863 ], [ -2.0385152, 42.3850835 ], [ -2.0385017, 42.3850765 ], [ -2.0399023, 42.384164 ], [ -2.0399199, 42.3841313 ], [ -2.0399235, 42.3841151 ], [ -2.0403608, 42.3838265 ] ] ] ] } },
{ "type": "Feature", "properties": { "provincia": 31, "municipio": 223, "poligono": 2, "parcela": 794, "recinto": 1, "uso_sigpac": "VI", "sup_sigpac": 2231.4063 }, "geometry": { "type": "MultiPolygon", "coordinates": [ [ [ [ -2.0398577, 42.3845364 ], [ -2.0405527, 42.3840942 ], [ -2.040599, 42.3841566 ], [ -2.040686, 42.3842491 ], [ -2.0407637, 42.3843198 ], [ -2.0400943, 42.3847468 ], [ -2.0398577, 42.3845364 ] ] ] ] } },
{ "type": "Feature", "properties": { "provincia": 31, "municipio": 223, "poligono": 2, "parcela": 789, "recinto": 1, "uso_sigpac": "VI", "sup_sigpac": 5912.9756 }, "geometry": { "type": "MultiPolygon", "coordinates": [ [ [ [ -2.0373107, 42.3841379 ], [ -2.0392996, 42.382874 ], [ -2.0394609, 42.3830001 ], [ -2.0395292, 42.3830507 ], [ -2.0395197, 42.3830569 ], [ -2.0377363, 42.3842179 ], [ -2.0376373, 42.3842102 ], [ -2.0375259, 42.3842002 ], [ -2.0374253, 42.3841845 ], [ -2.0373107, 42.3841379 ] ] ] ] } },
{ "type": "Feature", "properties": { "provincia": 31, "municipio": 223, "poligono": 2, "parcela": 2123, "recinto": 5, "uso_sigpac": "VI", "sup_sigpac": 853.5383 }, "geometry": { "type": "MultiPolygon", "coordinates": [ [ [ [ -2.0506901, 42.4001299 ], [ -2.0508235, 42.4005849 ], [ -2.0506632, 42.4006113 ], [ -2.0506607, 42.4005957 ], [ -2.0506367, 42.4005373 ], [ -2.0505849, 42.4004111 ], [ -2.0505266, 42.400287 ], [ -2.0504841, 42.4002038 ], [ -2.0503414, 42.4002349 ], [ -2.0504471, 42.4001626 ], [ -2.0506901, 42.4001299 ] ] ] ] } },
{ "type": "Feature", "properties": { "provincia": 31, "municipio": 223, "poligono": 2, "parcela": 950, "recinto": 1, "uso_sigpac": "VI", "sup_sigpac": 3648.985 }, "geometry": { "type": "MultiPolygon", "coordinates": [ [ [ [ -2.0436903, 42.3938365 ], [ -2.0445825, 42.3930963 ], [ -2.04467, 42.3931814 ], [ -2.0448022, 42.3932895 ], [ -2.0435169, 42.3942513 ], [ -2.0433323, 42.3941223 ], [ -2.0436903, 42.3938365 ] ] ] ] } },
{ "type": "Feature", "properties": { "provincia": 31, "municipio": 223, "poligono": 2, "parcela": 937, "recinto": 1, "uso_sigpac": "VI", "sup_sigpac": 8485.0728 }, "geometry": { "type": "MultiPolygon", "coordinates": [ [ [ [ -2.045298, 42.3937134 ], [ -2.0453001, 42.3937151 ], [ -2.0453462, 42.3937496 ], [ -2.0454169, 42.393814 ], [ -2.045526, 42.3939014 ], [ -2.0455101, 42.3939153 ], [ -2.0454887, 42.3939339 ], [ -2.0454754, 42.3939455 ], [ -2.0453469, 42.3940575 ], [ -2.045227, 42.3941543 ], [ -2.0452168, 42.3941615 ], [ -2.0451322, 42.3942214 ], [ -2.0450497, 42.394284 ], [ -2.0449701, 42.3943604 ], [ -2.044858, 42.3944617 ], [ -2.0447801, 42.3945301 ], [ -2.0447053, 42.3945996 ], [ -2.0447468, 42.3946399 ], [ -2.0447927, 42.3947064 ], [ -2.0448264, 42.3947455 ], [ -2.0448755, 42.3947891 ], [ -2.0446346, 42.3949336 ], [ -2.0441761, 42.3952132 ], [ -2.0440533, 42.395287 ], [ -2.0437307, 42.3950031 ], [ -2.043621, 42.3949797 ], [ -2.0435676, 42.3949683 ], [ -2.0436475, 42.3949092 ], [ -2.0439248, 42.3947093 ], [ -2.0441147, 42.3945589 ], [ -2.0444503, 42.3943199 ], [ -2.0446809, 42.3941538 ], [ -2.044856, 42.3940301 ], [ -2.0449743, 42.3939412 ], [ -2.045298, 42.3937134 ] ] ] ] } },
{ "type": "Feature", "properties": { "provincia": 31, "municipio": 223, "poligono": 2, "parcela": 880, "recinto": 1, "uso_sigpac": "VI", "sup_sigpac": 6502.7266 }, "geometry": { "type": "MultiPolygon", "coordinates": [ [ [ [ -2.0494479, 42.384639 ], [ -2.050281, 42.3856722 ], [ -2.050278, 42.3856739 ], [ -2.04983, 42.3859278 ], [ -2.04956, 42.3855903 ], [ -2.0489677, 42.3848624 ], [ -2.0491917, 42.3847065 ], [ -2.0493565, 42.3845928 ], [ -2.0494479, 42.384639 ] ] ] ] } },
{ "type": "Feature", "properties": { "provincia": 31, "municipio": 223, "poligono": 2, "parcela": 865, "recinto": 1, "uso_sigpac": "VI", "sup_sigpac": 2777.629 }, "geometry": { "type": "MultiPolygon", "coordinates": [ [ [ [ -2.0503515, 42.3850408 ], [ -2.05059, 42.3852032 ], [ -2.0510124, 42.3855075 ], [ -2.0506684, 42.3857644 ], [ -2.0506661, 42.3857632 ], [ -2.0505492, 42.3856769 ], [ -2.0504769, 42.3856308 ], [ -2.0504049, 42.3855447 ], [ -2.050219, 42.3853745 ], [ -2.0500855, 42.3852458 ], [ -2.0503515, 42.3850408 ] ] ] ] } },
{ "type": "Feature", "properties": { "provincia": 31, "municipio": 223, "poligono": 2, "parcela": 881, "recinto": 1, "uso_sigpac": "VI", "sup_sigpac": 3873.088 }, "geometry": { "type": "MultiPolygon", "coordinates": [ [ [ [ -2.0533311, 42.3868211 ], [ -2.0533916, 42.3867709 ], [ -2.054026, 42.3869915 ], [ -2.0539344, 42.3871708 ], [ -2.0538701, 42.3872762 ], [ -2.0537828, 42.3873966 ], [ -2.05377, 42.3874276 ], [ -2.0528033, 42.3870917 ], [ -2.0528966, 42.3870224 ], [ -2.052964, 42.3869809 ], [ -2.0530487, 42.3869423 ], [ -2.0531356, 42.3869146 ], [ -2.053225, 42.3868834 ], [ -2.0532749, 42.3868581 ], [ -2.0533311, 42.3868211 ] ] ] ] } },
{ "type": "Feature", "properties": { "provincia": 31, "municipio": 223, "poligono": 2, "parcela": 568, "recinto": 1, "uso_sigpac": "VI", "sup_sigpac": 3358.1114 }, "geometry": { "type": "MultiPolygon", "coordinates": [ [ [ [ -2.0537131, 42.3863709 ], [ -2.0537882, 42.3863176 ], [ -2.0543376, 42.3865077 ], [ -2.054026, 42.3869915 ], [ -2.0533916, 42.3867709 ], [ -2.0534525, 42.3866752 ], [ -2.0535309, 42.3865361 ], [ -2.0536089, 42.3864494 ], [ -2.0537131, 42.3863709 ] ] ] ] } },
{ "type": "Feature", "properties": { "provincia": 31, "municipio": 223, "poligono": 2, "parcela": 853, "recinto": 1, "uso_sigpac": "VI", "sup_sigpac": 2794.2342 }, "geometry": { "type": "MultiPolygon", "coordinates": [ [ [ [ -2.0471732, 42.3835193 ], [ -2.047367, 42.3834606 ], [ -2.0474773, 42.3837987 ], [ -2.0476044, 42.3841655 ], [ -2.0472828, 42.3841367 ], [ -2.0471844, 42.3838708 ], [ -2.0466434, 42.3838273 ], [ -2.0467275, 42.3837498 ], [ -2.0467978, 42.3836711 ], [ -2.0468787, 42.383604 ], [ -2.0469919, 42.3835724 ], [ -2.0471732, 42.3835193 ] ] ] ] } },
{ "type": "Feature", "properties": { "provincia": 31, "municipio": 223, "poligono": 2, "parcela": 850, "recinto": 2, "uso_sigpac": "VI", "sup_sigpac": 644.9177 }, "geometry": { "type": "MultiPolygon", "coordinates": [ [ [ [ -2.0492985, 42.3840269 ], [ -2.0496759, 42.383706 ], [ -2.049739, 42.3837439 ], [ -2.0497881, 42.3837934 ], [ -2.0494796, 42.3840794 ], [ -2.0494008, 42.3840722 ], [ -2.0492985, 42.3840269 ] ] ] ] } },
{ "type": "Feature", "properties": { "provincia": 31, "municipio": 223, "poligono": 2, "parcela": 855, "recinto": 2, "uso_sigpac": "VI", "sup_sigpac": 142.7828 }, "geometry": { "type": "MultiPolygon", "coordinates": [ [ [ [ -2.0489181, 42.3840283 ], [ -2.0490405, 42.3839142 ], [ -2.0490422, 42.3840352 ], [ -2.0489116, 42.3841285 ], [ -2.0488762, 42.3840977 ], [ -2.0489181, 42.3840283 ] ] ] ] } },
{ "type": "Feature", "properties": { "provincia": 31, "municipio": 223, "poligono": 2, "parcela": 857, "recinto": 1, "uso_sigpac": "VI", "sup_sigpac": 9795.5366 }, "geometry": { "type": "MultiPolygon", "coordinates": [ [ [ [ -2.0502825, 42.383176 ], [ -2.0504416, 42.3832111 ], [ -2.0507815, 42.3832537 ], [ -2.0511138, 42.3832837 ], [ -2.051293, 42.3833073 ], [ -2.051438, 42.3833571 ], [ -2.0513514, 42.3833647 ], [ -2.0511966, 42.3833664 ], [ -2.0511533, 42.3833788 ], [ -2.0510716, 42.3834198 ], [ -2.050431, 42.383851 ], [ -2.049484, 42.3845075 ], [ -2.0493394, 42.3844119 ], [ -2.04915, 42.3842977 ], [ -2.0490023, 42.3841896 ], [ -2.0489116, 42.3841285 ], [ -2.0490422, 42.3840352 ], [ -2.0490405, 42.3839142 ], [ -2.0490405, 42.3839128 ], [ -2.0490402, 42.3838967 ], [ -2.0490528, 42.3839039 ], [ -2.0491711, 42.3839705 ], [ -2.0492985, 42.3840269 ], [ -2.0494008, 42.3840722 ], [ -2.0494796, 42.3840794 ], [ -2.0497881, 42.3837934 ], [ -2.049739, 42.3837439 ], [ -2.0496759, 42.383706 ], [ -2.0496836, 42.3836957 ], [ -2.0498068, 42.3835794 ], [ -2.0501027, 42.3833082 ], [ -2.0502825, 42.383176 ] ] ] ] } },
{ "type": "Feature", "properties": { "provincia": 31, "municipio": 223, "poligono": 2, "parcela": 858, "recinto": 1, "uso_sigpac": "VI", "sup_sigpac": 2340.0125 }, "geometry": { "type": "MultiPolygon", "coordinates": [ [ [ [ -2.0511468, 42.3834143 ], [ -2.0512335, 42.3833963 ], [ -2.0512578, 42.3834525 ], [ -2.0512855, 42.3834789 ], [ -2.0503821, 42.3840875 ], [ -2.0495424, 42.3846656 ], [ -2.0494533, 42.384593 ], [ -2.049556, 42.3845168 ], [ -2.050206, 42.3840628 ], [ -2.0510162, 42.3835076 ], [ -2.0511033, 42.3834439 ], [ -2.0511468, 42.3834143 ] ] ] ] } },
{ "type": "Feature", "properties": { "provincia": 31, "municipio": 223, "poligono": 2, "parcela": 838, "recinto": 1, "uso_sigpac": "VI", "sup_sigpac": 5678.657 }, "geometry": { "type": "MultiPolygon", "coordinates": [ [ [ [ -2.0499007, 42.3823098 ], [ -2.0507134, 42.3826084 ], [ -2.0505945, 42.3827795 ], [ -2.0505492, 42.3828447 ], [ -2.0503427, 42.3831391 ], [ -2.0501428, 42.3831089 ], [ -2.0501327, 42.3831073 ], [ -2.0496648, 42.3830082 ], [ -2.04945, 42.3829752 ], [ -2.0495175, 42.3828507 ], [ -2.0496867, 42.3825733 ], [ -2.0497978, 42.3824089 ], [ -2.0499007, 42.3823098 ] ] ] ] } },
{ "type": "Feature", "properties": { "provincia": 31, "municipio": 223, "poligono": 2, "parcela": 863, "recinto": 1, "uso_sigpac": "VI", "sup_sigpac": 4473.3133 }, "geometry": { "type": "MultiPolygon", "coordinates": [ [ [ [ -2.0517971, 42.3839718 ], [ -2.0518948, 42.3840598 ], [ -2.0520169, 42.3841503 ], [ -2.0513259, 42.3846591 ], [ -2.05059, 42.3852032 ], [ -2.0503515, 42.3850408 ], [ -2.0510843, 42.3844945 ], [ -2.0517971, 42.3839718 ] ] ] ] } },
{ "type": "Feature", "properties": { "provincia": 31, "municipio": 223, "poligono": 2, "parcela": 862, "recinto": 1, "uso_sigpac": "VI", "sup_sigpac": 3847.7251 }, "geometry": { "type": "MultiPolygon", "coordinates": [ [ [ [ -2.0516653, 42.3838371 ], [ -2.0517341, 42.3839019 ], [ -2.051803, 42.3839675 ], [ -2.0517971, 42.3839718 ], [ -2.0510843, 42.3844945 ], [ -2.0503515, 42.3850408 ], [ -2.0500855, 42.3852458 ], [ -2.0500088, 42.3851562 ], [ -2.0499495, 42.385074 ], [ -2.0510142, 42.3843086 ], [ -2.0516653, 42.3838371 ] ] ] ] } },
{ "type": "Feature", "properties": { "provincia": 31, "municipio": 223, "poligono": 2, "parcela": 862, "recinto": 2, "uso_sigpac": "VI", "sup_sigpac": 2505.4059 }, "geometry": { "type": "MultiPolygon", "coordinates": [ [ [ [ -2.051563, 42.3837631 ], [ -2.0516653, 42.3838371 ], [ -2.0510142, 42.3843086 ], [ -2.0499495, 42.385074 ], [ -2.0498711, 42.3849656 ], [ -2.0506255, 42.3844216 ], [ -2.051563, 42.3837631 ] ] ] ] } },
{ "type": "Feature", "properties": { "provincia": 31, "municipio": 223, "poligono": 2, "parcela": 864, "recinto": 1, "uso_sigpac": "VI", "sup_sigpac": 5858.5057 }, "geometry": { "type": "MultiPolygon", "coordinates": [ [ [ [ -2.0520248, 42.3841444 ], [ -2.052139, 42.3842149 ], [ -2.0522713, 42.3842848 ], [ -2.051796, 42.3846599 ], [ -2.0515439, 42.384858 ], [ -2.0515634, 42.3849439 ], [ -2.0510422, 42.385529 ], [ -2.0510124, 42.3855075 ], [ -2.05059, 42.3852032 ], [ -2.0513259, 42.3846591 ], [ -2.0520169, 42.3841503 ], [ -2.0520248, 42.3841444 ] ] ] ] } },
{ "type": "Feature", "properties": { "provincia": 31, "municipio": 223, "poligono": 2, "parcela": 1067, "recinto": 3, "uso_sigpac": "VI", "sup_sigpac": 1538.9251 }, "geometry": { "type": "MultiPolygon", "coordinates": [ [ [ [ -2.04983, 42.3859278 ], [ -2.0497184, 42.3859796 ], [ -2.0493649, 42.3855512 ], [ -2.0488674, 42.3849314 ], [ -2.0489677, 42.3848624 ], [ -2.04956, 42.3855903 ], [ -2.04983, 42.3859278 ] ] ] ] } },
{ "type": "Feature", "properties": { "provincia": 31, "municipio": 223, "poligono": 2, "parcela": 939, "recinto": 3, "uso_sigpac": "VI", "sup_sigpac": 418.2445 }, "geometry": { "type": "MultiPolygon", "coordinates": [ [ [ [ -2.0435542, 42.3942808 ], [ -2.0435169, 42.3942513 ], [ -2.0448022, 42.3932895 ], [ -2.0448102, 42.3932973 ], [ -2.0435542, 42.3942808 ] ] ] ] } },
{ "type": "Feature", "properties": { "provincia": 31, "municipio": 223, "poligono": 2, "parcela": 973, "recinto": 1, "uso_sigpac": "VI", "sup_sigpac": 302.5294 }, "geometry": { "type": "MultiPolygon", "coordinates": [ [ [ [ -2.0417906, 42.3885485 ], [ -2.0417511, 42.388581 ], [ -2.041227, 42.3887653 ], [ -2.0407382, 42.3889472 ], [ -2.040714, 42.3889376 ], [ -2.0417551, 42.3885305 ], [ -2.0417906, 42.3885485 ] ] ] ] } },
{ "type": "Feature", "properties": { "provincia": 31, "municipio": 223, "poligono": 2, "parcela": 880, "recinto": 3, "uso_sigpac": "VI", "sup_sigpac": 408.094 }, "geometry": { "type": "MultiPolygon", "coordinates": [ [ [ [ -2.050278, 42.3856739 ], [ -2.0503323, 42.385738 ], [ -2.0503319, 42.3857397 ], [ -2.0503105, 42.3857525 ], [ -2.0498863, 42.3859981 ], [ -2.04983, 42.3859278 ], [ -2.050278, 42.3856739 ] ] ] ] } },
{ "type": "Feature", "properties": { "provincia": 31, "municipio": 223, "poligono": 1, "parcela": 961, "recinto": 5, "uso_sigpac": "VI", "sup_sigpac": 620.2296 }, "geometry": { "type": "MultiPolygon", "coordinates": [ [ [ [ -2.052261, 42.3926973 ], [ -2.0523669, 42.392708 ], [ -2.0526353, 42.3927252 ], [ -2.0527861, 42.3927463 ], [ -2.0530433, 42.3928406 ], [ -2.0532795, 42.3929869 ], [ -2.0534236, 42.3930526 ], [ -2.053385, 42.393053 ], [ -2.0533523, 42.3930534 ], [ -2.053223, 42.3930147 ], [ -2.0530101, 42.392921 ], [ -2.0526757, 42.3927988 ], [ -2.0523975, 42.3927297 ], [ -2.052261, 42.3926973 ] ] ] ] } },
{ "type": "Feature", "properties": { "provincia": 31, "municipio": 223, "poligono": 1, "parcela": 961, "recinto": 6, "uso_sigpac": "VI", "sup_sigpac": 129.3405 }, "geometry": { "type": "MultiPolygon", "coordinates": [ [ [ [ -2.0538654, 42.3930563 ], [ -2.0539807, 42.3930882 ], [ -2.0540242, 42.3931378 ], [ -2.0540801, 42.3932431 ], [ -2.0541045, 42.393295 ], [ -2.0540938, 42.3932923 ], [ -2.0539915, 42.3932068 ], [ -2.0539084, 42.3930973 ], [ -2.0538654, 42.3930563 ] ] ] ] } }
]
}
